{
"type": "FeatureCollection",
"name": "autumn_photos",
"crs": { "type": "name", "properties": { "name": "urn:ogc:def:crs:OGC:1.3:CRS84" } },
"features": [
{ "type": "Feature", "properties": { "XMP_Title": "", "SiteID": "NULL", "Corner": "NULL", "SourceFile": null, "filename_only": "20250331_105225", "img_rel": "photos/20250331_105225", "Distance_m": "NULL", "Latitude": "-31.363603", "Longitude": "116.185971" }, "geometry": { "type": "Point", "coordinates": [ 116.1859712, -31.363603194444448 ] } },
{ "type": "Feature", "properties": { "XMP_Title": "", "SiteID": "NULL", "Corner": "NULL", "SourceFile": null, "filename_only": "20250331_151900", "img_rel": "photos/20250331_151900", "Distance_m": "NULL", "Latitude": "-31.363558", "Longitude": "116.184806" }, "geometry": { "type": "Point", "coordinates": [ 116.1848064, -31.36355838888889 ] } },
{ "type": "Feature", "properties": { "XMP_Title": "", "SiteID": "NULL", "Corner": "NULL", "SourceFile": null, "filename_only": "20250331_153312", "img_rel": "photos/20250331_153312", "Distance_m": "NULL", "Latitude": "-31.364490", "Longitude": "116.184781" }, "geometry": { "type": "Point", "coordinates": [ 116.1847808, -31.364489611111111 ] } },
{ "type": "Feature", "properties": { "XMP_Title": "", "SiteID": "NULL", "Corner": "NULL", "SourceFile": null, "filename_only": "20250401_093410", "img_rel": "photos/20250401_093410", "Distance_m": "NULL", "Latitude": "-31.364441", "Longitude": "116.185961" }, "geometry": { "type": "Point", "coordinates": [ 116.1859609, -31.3644405 ] } },
{ "type": "Feature", "properties": { "XMP_Title": "", "SiteID": "NULL", "Corner": "NULL", "SourceFile": null, "filename_only": "20250401_112216", "img_rel": "photos/20250401_112216", "Distance_m": "NULL", "Latitude": "-31.367491", "Longitude": "116.183664" }, "geometry": { "type": "Point", "coordinates": [ 116.1836636, -31.3674915 ] } },
{ "type": "Feature", "properties": { "XMP_Title": "", "SiteID": "NULL", "Corner": "NULL", "SourceFile": null, "filename_only": "20250401_155754", "img_rel": "photos/20250401_155754", "Distance_m": "NULL", "Latitude": "-31.368458", "Longitude": "116.182510" }, "geometry": { "type": "Point", "coordinates": [ 116.182509611111115, -31.3684579 ] } },
{ "type": "Feature", "properties": { "XMP_Title": "", "SiteID": "NULL", "Corner": "NULL", "SourceFile": null, "filename_only": "20250403_112959", "img_rel": "photos/20250403_112959", "Distance_m": "NULL", "Latitude": "-31.367522", "Longitude": "116.182647" }, "geometry": { "type": "Point", "coordinates": [ 116.182647194444442, -31.367522 ] } },
{ "type": "Feature", "properties": { "XMP_Title": "", "SiteID": "NULL", "Corner": "NULL", "SourceFile": null, "filename_only": "20250403_134202", "img_rel": "photos/20250403_134202", "Distance_m": "NULL", "Latitude": "-31.369966", "Longitude": "116.168075" }, "geometry": { "type": "Point", "coordinates": [ 116.1680748, -31.369965694444446 ] } },
{ "type": "Feature", "properties": { "XMP_Title": "", "SiteID": "NULL", "Corner": "NULL", "SourceFile": null, "filename_only": "20250403_134408", "img_rel": "photos/20250403_134408", "Distance_m": "NULL", "Latitude": "-31.370024", "Longitude": "116.169129" }, "geometry": { "type": "Point", "coordinates": [ 116.1691292, -31.370024 ] } },
{ "type": "Feature", "properties": { "XMP_Title": "", "SiteID": "NULL", "Corner": "NULL", "SourceFile": null, "filename_only": "20250403_134600", "img_rel": "photos/20250403_134600", "Distance_m": "NULL", "Latitude": "-31.370877", "Longitude": "116.169094" }, "geometry": { "type": "Point", "coordinates": [ 116.1690942, -31.3708765 ] } },
{ "type": "Feature", "properties": { "XMP_Title": "", "SiteID": "NULL", "Corner": "NULL", "SourceFile": null, "filename_only": "20250403_134742", "img_rel": "photos/20250403_134742", "Distance_m": "NULL", "Latitude": "-31.370902", "Longitude": "116.168041" }, "geometry": { "type": "Point", "coordinates": [ 116.1680408, -31.370901805555555 ] } },
{ "type": "Feature", "properties": { "XMP_Title": "", "SiteID": "NULL", "Corner": "NULL", "SourceFile": null, "filename_only": "20250403_142745", "img_rel": "photos/20250403_142745", "Distance_m": "NULL", "Latitude": "-31.392493", "Longitude": "116.308154" }, "geometry": { "type": "Point", "coordinates": [ 116.308154, -31.392492888888889 ] } },
{ "type": "Feature", "properties": { "XMP_Title": "", "SiteID": "NULL", "Corner": "NULL", "SourceFile": null, "filename_only": "20250403_154724", "img_rel": "photos/20250403_154724", "Distance_m": "NULL", "Latitude": "-31.392563", "Longitude": "116.309119" }, "geometry": { "type": "Point", "coordinates": [ 116.309119, -31.3925625 ] } },
{ "type": "Feature", "properties": { "XMP_Title": "", "SiteID": "NULL", "Corner": "NULL", "SourceFile": null, "filename_only": "20250403_170711", "img_rel": "photos/20250403_170711", "Distance_m": "NULL", "Latitude": "-31.393468", "Longitude": "116.308135" }, "geometry": { "type": "Point", "coordinates": [ 116.3081355, -31.393468 ] } },
{ "type": "Feature", "properties": { "XMP_Title": "", "SiteID": "NULL", "Corner": "NULL", "SourceFile": null, "filename_only": "20250408_094146", "img_rel": "photos/20250408_094146", "Distance_m": "NULL", "Latitude": "-33.351781", "Longitude": "115.968380" }, "geometry": { "type": "Point", "coordinates": [ 115.96838, -33.3517807 ] } },
{ "type": "Feature", "properties": { "XMP_Title": "", "SiteID": "NULL", "Corner": "NULL", "SourceFile": null, "filename_only": "20250408_114822", "img_rel": "photos/20250408_114822", "Distance_m": "NULL", "Latitude": "-33.352630", "Longitude": "115.967427" }, "geometry": { "type": "Point", "coordinates": [ 115.9674272, -33.3526301 ] } },
{ "type": "Feature", "properties": { "XMP_Title": "", "SiteID": "NULL", "Corner": "NULL", "SourceFile": null, "filename_only": "20250408_144727", "img_rel": "photos/20250408_144727", "Distance_m": "NULL", "Latitude": "-33.352800", "Longitude": "115.968571" }, "geometry": { "type": "Point", "coordinates": [ 115.9685713, -33.352800111111115 ] } },
{ "type": "Feature", "properties": { "XMP_Title": "", "SiteID": "NULL", "Corner": "NULL", "SourceFile": null, "filename_only": "20250408_165143", "img_rel": "photos/20250408_165143", "Distance_m": "NULL", "Latitude": "-33.356408", "Longitude": "115.963383" }, "geometry": { "type": "Point", "coordinates": [ 115.963383194444447, -33.356407694444442 ] } },
{ "type": "Feature", "properties": { "XMP_Title": "", "SiteID": "NULL", "Corner": "NULL", "SourceFile": null, "filename_only": "20250409_085330", "img_rel": "photos/20250409_085330", "Distance_m": "NULL", "Latitude": "-33.357274", "Longitude": "115.963366" }, "geometry": { "type": "Point", "coordinates": [ 115.963366388888886, -33.357273611111111 ] } },
{ "type": "Feature", "properties": { "XMP_Title": "", "SiteID": "NULL", "Corner": "NULL", "SourceFile": null, "filename_only": "20250409_104333", "img_rel": "photos/20250409_104333", "Distance_m": "NULL", "Latitude": "-33.357286", "Longitude": "115.962283" }, "geometry": { "type": "Point", "coordinates": [ 115.962282611111121, -33.357286 ] } },
{ "type": "Feature", "properties": { "XMP_Title": "", "SiteID": "NULL", "Corner": "NULL", "SourceFile": null, "filename_only": "20250409_143948", "img_rel": "photos/20250409_143948", "Distance_m": "NULL", "Latitude": "-33.356318", "Longitude": "115.962261" }, "geometry": { "type": "Point", "coordinates": [ 115.96226061111112, -33.356318 ] } },
{ "type": "Feature", "properties": { "XMP_Title": "", "SiteID": "NULL", "Corner": "NULL", "SourceFile": null, "filename_only": "20250415_081021", "img_rel": "photos/20250415_081021", "Distance_m": "NULL", "Latitude": "-33.219427", "Longitude": "116.576542" }, "geometry": { "type": "Point", "coordinates": [ 116.576542194444443, -33.2194269 ] } },
{ "type": "Feature", "properties": { "XMP_Title": "", "SiteID": "NULL", "Corner": "NULL", "SourceFile": null, "filename_only": "20250415_093524", "img_rel": "photos/20250415_093524", "Distance_m": "NULL", "Latitude": "-33.218479", "Longitude": "116.576685" }, "geometry": { "type": "Point", "coordinates": [ 116.576685305555557, -33.2184793 ] } },
{ "type": "Feature", "properties": { "XMP_Title": "", "SiteID": "NULL", "Corner": "NULL", "SourceFile": null, "filename_only": "20250415_112120", "img_rel": "photos/20250415_112120", "Distance_m": "NULL", "Latitude": "-33.271105", "Longitude": "116.488503" }, "geometry": { "type": "Point", "coordinates": [ 116.488502888888888, -33.2711055 ] } },
{ "type": "Feature", "properties": { "XMP_Title": "", "SiteID": "NULL", "Corner": "NULL", "SourceFile": null, "filename_only": "20250415_142719", "img_rel": "photos/20250415_142719", "Distance_m": "NULL", "Latitude": "-33.272186", "Longitude": "116.487333" }, "geometry": { "type": "Point", "coordinates": [ 116.487332694444447, -33.272185611111112 ] } },
{ "type": "Feature", "properties": { "XMP_Title": "", "SiteID": "NULL", "Corner": "NULL", "SourceFile": null, "filename_only": "20250415_153618", "img_rel": "photos/20250415_153618", "Distance_m": "NULL", "Latitude": "-33.272227", "Longitude": "116.488501" }, "geometry": { "type": "Point", "coordinates": [ 116.4885005, -33.272227305555553 ] } },
{ "type": "Feature", "properties": { "XMP_Title": "", "SiteID": "NULL", "Corner": "NULL", "SourceFile": null, "filename_only": "20250415_170825", "img_rel": "photos/20250415_170825", "Distance_m": "NULL", "Latitude": "-33.308851", "Longitude": "116.469475" }, "geometry": { "type": "Point", "coordinates": [ 116.469475194444442, -33.308851 ] } },
{ "type": "Feature", "properties": { "XMP_Title": "", "SiteID": "NULL", "Corner": "NULL", "SourceFile": null, "filename_only": "20250416_094057", "img_rel": "photos/20250416_094057", "Distance_m": "NULL", "Latitude": "-33.307936", "Longitude": "116.469484" }, "geometry": { "type": "Point", "coordinates": [ 116.469483694444449, -33.307936 ] } },
{ "type": "Feature", "properties": { "XMP_Title": "", "SiteID": "NULL", "Corner": "NULL", "SourceFile": null, "filename_only": "20250416_110020", "img_rel": "photos/20250416_110020", "Distance_m": "NULL", "Latitude": "-33.307882", "Longitude": "116.470596" }, "geometry": { "type": "Point", "coordinates": [ 116.4705965, -33.30788169444444 ] } },
{ "type": "Feature", "properties": { "XMP_Title": "", "SiteID": "NULL", "Corner": "NULL", "SourceFile": null, "filename_only": "20250416_120522", "img_rel": "photos/20250416_120522", "Distance_m": "NULL", "Latitude": "-33.308844", "Longitude": "116.470636" }, "geometry": { "type": "Point", "coordinates": [ 116.470635611111106, -33.308843694444441 ] } },
{ "type": "Feature", "properties": { "XMP_Title": "", "SiteID": "NULL", "Corner": "NULL", "SourceFile": null, "filename_only": "20250416_133824", "img_rel": "photos/20250416_133824", "Distance_m": "NULL", "Latitude": "-33.300808", "Longitude": "116.447065" }, "geometry": { "type": "Point", "coordinates": [ 116.447065194444448, -33.3008084 ] } },
{ "type": "Feature", "properties": { "XMP_Title": "", "SiteID": "NULL", "Corner": "NULL", "SourceFile": null, "filename_only": "20250416_142458", "img_rel": "photos/20250416_142458", "Distance_m": "NULL", "Latitude": "-33.299861", "Longitude": "116.447005" }, "geometry": { "type": "Point", "coordinates": [ 116.447005, -33.299861111111106 ] } },
{ "type": "Feature", "properties": { "XMP_Title": "", "SiteID": "NULL", "Corner": "NULL", "SourceFile": null, "filename_only": "20250416_160754", "img_rel": "photos/20250416_160754", "Distance_m": "NULL", "Latitude": "-33.299880", "Longitude": "116.448077" }, "geometry": { "type": "Point", "coordinates": [ 116.448077111111118, -33.299880111111108 ] } },
{ "type": "Feature", "properties": { "XMP_Title": "", "SiteID": "NULL", "Corner": "NULL", "SourceFile": null, "filename_only": "20250416_162658", "img_rel": "photos/20250416_162658", "Distance_m": "NULL", "Latitude": "-33.300810", "Longitude": "116.448090" }, "geometry": { "type": "Point", "coordinates": [ 116.448090305555553, -33.3008096 ] } },
{ "type": "Feature", "properties": { "XMP_Title": "", "SiteID": "NULL", "Corner": "NULL", "SourceFile": null, "filename_only": "20250428_095634", "img_rel": "photos/20250428_095634", "Distance_m": "NULL", "Latitude": "-34.979908", "Longitude": "116.818551" }, "geometry": { "type": "Point", "coordinates": [ 116.8185506, -34.979907888888889 ] } },
{ "type": "Feature", "properties": { "XMP_Title": "", "SiteID": "NULL", "Corner": "NULL", "SourceFile": null, "filename_only": "20250428_124617", "img_rel": "photos/20250428_124617", "Distance_m": "NULL", "Latitude": "-34.978953", "Longitude": "116.818507" }, "geometry": { "type": "Point", "coordinates": [ 116.818507, -34.978952888888891 ] } },
{ "type": "Feature", "properties": { "XMP_Title": "", "SiteID": "NULL", "Corner": "NULL", "SourceFile": null, "filename_only": "20250428_165110", "img_rel": "photos/20250428_165110", "Distance_m": "NULL", "Latitude": "-34.978951", "Longitude": "116.819566" }, "geometry": { "type": "Point", "coordinates": [ 116.819565888888889, -34.978951388888888 ] } },
{ "type": "Feature", "properties": { "XMP_Title": "", "SiteID": "NULL", "Corner": "NULL", "SourceFile": null, "filename_only": "20250429_092042", "img_rel": "photos/20250429_092042", "Distance_m": "NULL", "Latitude": "-34.979790", "Longitude": "116.819595" }, "geometry": { "type": "Point", "coordinates": [ 116.819595, -34.97979 ] } },
{ "type": "Feature", "properties": { "XMP_Title": "", "SiteID": "NULL", "Corner": "NULL", "SourceFile": null, "filename_only": "20250429_112720", "img_rel": "photos/20250429_112720", "Distance_m": "NULL", "Latitude": "-34.971987", "Longitude": "116.804066" }, "geometry": { "type": "Point", "coordinates": [ 116.804066305555551, -34.971986694444446 ] } },
{ "type": "Feature", "properties": { "XMP_Title": "", "SiteID": "NULL", "Corner": "NULL", "SourceFile": null, "filename_only": "20250429_142311", "img_rel": "photos/20250429_142311", "Distance_m": "NULL", "Latitude": "-34.972875", "Longitude": "116.802856" }, "geometry": { "type": "Point", "coordinates": [ 116.802856305555551, -34.97287469444445 ] } },
{ "type": "Feature", "properties": { "XMP_Title": "", "SiteID": "NULL", "Corner": "NULL", "SourceFile": null, "filename_only": "20250429_171734", "img_rel": "photos/20250429_171734", "Distance_m": "NULL", "Latitude": "-34.972947", "Longitude": "116.803855" }, "geometry": { "type": "Point", "coordinates": [ 116.803855388888891, -34.972946805555559 ] } },
{ "type": "Feature", "properties": { "XMP_Title": "", "SiteID": "NULL", "Corner": "NULL", "SourceFile": null, "filename_only": "20250430_094857", "img_rel": "photos/20250430_094857", "Distance_m": "NULL", "Latitude": "-34.971818", "Longitude": "116.803033" }, "geometry": { "type": "Point", "coordinates": [ 116.80303269444444, -34.971817611111113 ] } },
{ "type": "Feature", "properties": { "XMP_Title": "", "SiteID": "NULL", "Corner": "NULL", "SourceFile": null, "filename_only": "20250430_120316", "img_rel": "photos/20250430_120316", "Distance_m": "NULL", "Latitude": "-34.810375", "Longitude": "116.867500" }, "geometry": { "type": "Point", "coordinates": [ 116.867500299999989, -34.8103755 ] } },
{ "type": "Feature", "properties": { "XMP_Title": "", "SiteID": "NULL", "Corner": "NULL", "SourceFile": null, "filename_only": "20250430_142458", "img_rel": "photos/20250430_142458", "Distance_m": "NULL", "Latitude": "-34.810478", "Longitude": "116.868571" }, "geometry": { "type": "Point", "coordinates": [ 116.8685707, -34.810478194444443 ] } },
{ "type": "Feature", "properties": { "XMP_Title": "", "SiteID": "NULL", "Corner": "NULL", "SourceFile": null, "filename_only": "20250430_160009", "img_rel": "photos/20250430_160009", "Distance_m": "NULL", "Latitude": "-34.809574", "Longitude": "116.867579" }, "geometry": { "type": "Point", "coordinates": [ 116.867578599999987, -34.809574111111111 ] } },
{ "type": "Feature", "properties": { "XMP_Title": "", "SiteID": "NULL", "Corner": "NULL", "SourceFile": null, "filename_only": "20250501_082353", "img_rel": "photos/20250501_082353", "Distance_m": "NULL", "Latitude": "-34.809549", "Longitude": "116.868626" }, "geometry": { "type": "Point", "coordinates": [ 116.8686258, -34.809549305555549 ] } },
{ "type": "Feature", "properties": { "XMP_Title": "", "SiteID": "NULL", "Corner": "NULL", "SourceFile": null, "filename_only": "20250512_114705", "img_rel": "photos/20250512_114705", "Distance_m": "NULL", "Latitude": "-34.075608", "Longitude": "116.326710" }, "geometry": { "type": "Point", "coordinates": [ 116.326709805555552, -34.07560769444445 ] } },
{ "type": "Feature", "properties": { "XMP_Title": "", "SiteID": "NULL", "Corner": "NULL", "SourceFile": null, "filename_only": "20250512_135242", "img_rel": "photos/20250512_135242", "Distance_m": "NULL", "Latitude": "-34.075706", "Longitude": "116.327757" }, "geometry": { "type": "Point", "coordinates": [ 116.327756805555552, -34.075705611111111 ] } },
{ "type": "Feature", "properties": { "XMP_Title": "", "SiteID": "NULL", "Corner": "NULL", "SourceFile": null, "filename_only": "20250512_151545", "img_rel": "photos/20250512_151545", "Distance_m": "NULL", "Latitude": "-34.075988", "Longitude": "116.328646" }, "geometry": { "type": "Point", "coordinates": [ 116.328645888888886, -34.075988111111116 ] } },
{ "type": "Feature", "properties": { "XMP_Title": "", "SiteID": "NULL", "Corner": "NULL", "SourceFile": null, "filename_only": "20250512_163037", "img_rel": "photos/20250512_163037", "Distance_m": "NULL", "Latitude": "-34.076530", "Longitude": "116.326674" }, "geometry": { "type": "Point", "coordinates": [ 116.326673888888891, -34.076530305555558 ] } },
{ "type": "Feature", "properties": { "XMP_Title": "", "SiteID": "NULL", "Corner": "NULL", "SourceFile": null, "filename_only": "20250513_091450", "img_rel": "photos/20250513_091450", "Distance_m": "NULL", "Latitude": "-34.084806", "Longitude": "116.358923" }, "geometry": { "type": "Point", "coordinates": [ 116.358923, -34.0848062 ] } },
{ "type": "Feature", "properties": { "XMP_Title": "", "SiteID": "NULL", "Corner": "NULL", "SourceFile": null, "filename_only": "20250513_104449", "img_rel": "photos/20250513_104449", "Distance_m": "NULL", "Latitude": "-34.084844", "Longitude": "116.357878" }, "geometry": { "type": "Point", "coordinates": [ 116.35787769444444, -34.0848441 ] } },
{ "type": "Feature", "properties": { "XMP_Title": "", "SiteID": "NULL", "Corner": "NULL", "SourceFile": null, "filename_only": "20250513_130429", "img_rel": "photos/20250513_130429", "Distance_m": "NULL", "Latitude": "-34.083996", "Longitude": "116.358896" }, "geometry": { "type": "Point", "coordinates": [ 116.358895888888881, -34.083996 ] } },
{ "type": "Feature", "properties": { "XMP_Title": "", "SiteID": "NULL", "Corner": "NULL", "SourceFile": null, "filename_only": "20250513_144222", "img_rel": "photos/20250513_144222", "Distance_m": "NULL", "Latitude": "-34.083892", "Longitude": "116.357932" }, "geometry": { "type": "Point", "coordinates": [ 116.357931694444446, -34.0838922 ] } },
{ "type": "Feature", "properties": { "XMP_Title": "", "SiteID": "NULL", "Corner": "NULL", "SourceFile": null, "filename_only": "20250513_164217", "img_rel": "photos/20250513_164217", "Distance_m": "NULL", "Latitude": "-34.088712", "Longitude": "116.367577" }, "geometry": { "type": "Point", "coordinates": [ 116.3675775, -34.0887115 ] } },
{ "type": "Feature", "properties": { "XMP_Title": "", "SiteID": "NULL", "Corner": "NULL", "SourceFile": null, "filename_only": "20250514_082018", "img_rel": "photos/20250514_082018", "Distance_m": "NULL", "Latitude": "-34.088758", "Longitude": "116.368622" }, "geometry": { "type": "Point", "coordinates": [ 116.368622499999987, -34.088757888888892 ] } },
{ "type": "Feature", "properties": { "XMP_Title": "", "SiteID": "NULL", "Corner": "NULL", "SourceFile": null, "filename_only": "20250514_094404", "img_rel": "photos/20250514_094404", "Distance_m": "NULL", "Latitude": "-34.089678", "Longitude": "116.368617" }, "geometry": { "type": "Point", "coordinates": [ 116.3686168, -34.0896775 ] } },
{ "type": "Feature", "properties": { "XMP_Title": "", "SiteID": "NULL", "Corner": "NULL", "SourceFile": null, "filename_only": "20250514_111458", "img_rel": "photos/20250514_111458", "Distance_m": "NULL", "Latitude": "-34.089681", "Longitude": "116.367554" }, "geometry": { "type": "Point", "coordinates": [ 116.3675539, -34.089681305555558 ] } },
{ "type": "Feature", "properties": { "XMP_Title": "", "SiteID": "NULL", "Corner": "NULL", "SourceFile": null, "filename_only": "20250514_134531", "img_rel": "photos/20250514_134531", "Distance_m": "NULL", "Latitude": "-34.284631", "Longitude": "116.538250" }, "geometry": { "type": "Point", "coordinates": [ 116.538249694444445, -34.2846315 ] } },
{ "type": "Feature", "properties": { "XMP_Title": "", "SiteID": "NULL", "Corner": "NULL", "SourceFile": null, "filename_only": "20250514_152453", "img_rel": "photos/20250514_152453", "Distance_m": "NULL", "Latitude": "-34.284546", "Longitude": "116.539301" }, "geometry": { "type": "Point", "coordinates": [ 116.539300694444449, -34.2845463 ] } },
{ "type": "Feature", "properties": { "XMP_Title": "", "SiteID": "NULL", "Corner": "NULL", "SourceFile": null, "filename_only": "20250514_170359", "img_rel": "photos/20250514_170359", "Distance_m": "NULL", "Latitude": "-34.285485", "Longitude": "116.538217" }, "geometry": { "type": "Point", "coordinates": [ 116.538216694444444, -34.2854854 ] } },
{ "type": "Feature", "properties": { "XMP_Title": "", "SiteID": "NULL", "Corner": "NULL", "SourceFile": null, "filename_only": "20250515_095628", "img_rel": "photos/20250515_095628", "Distance_m": "NULL", "Latitude": "-34.285560", "Longitude": "116.539265" }, "geometry": { "type": "Point", "coordinates": [ 116.5392645, -34.2855599 ] } },
{ "type": "Feature", "properties": { "XMP_Title": "", "SiteID": "NULL", "Corner": "NULL", "SourceFile": null, "filename_only": "20250515_105519", "img_rel": "photos/20250515_105519", "Distance_m": "NULL", "Latitude": "-34.289877", "Longitude": "116.538001" }, "geometry": { "type": "Point", "coordinates": [ 116.538001194444448, -34.289876694444445 ] } },
{ "type": "Feature", "properties": { "XMP_Title": "", "SiteID": "NULL", "Corner": "NULL", "SourceFile": null, "filename_only": "20250515_122123", "img_rel": "photos/20250515_122123", "Distance_m": "NULL", "Latitude": "-34.289833", "Longitude": "116.539072" }, "geometry": { "type": "Point", "coordinates": [ 116.539071611111112, -34.289832888888888 ] } },
{ "type": "Feature", "properties": { "XMP_Title": "", "SiteID": "NULL", "Corner": "NULL", "SourceFile": null, "filename_only": "20250515_141852", "img_rel": "photos/20250515_141852", "Distance_m": "NULL", "Latitude": "-34.290853", "Longitude": "116.539152" }, "geometry": { "type": "Point", "coordinates": [ 116.539151611111109, -34.290853194444445 ] } },
{ "type": "Feature", "properties": { "XMP_Title": "", "SiteID": "NULL", "Corner": "NULL", "SourceFile": null, "filename_only": "20250515_154614", "img_rel": "photos/20250515_154614", "Distance_m": "NULL", "Latitude": "-34.291249", "Longitude": "116.537927" }, "geometry": { "type": "Point", "coordinates": [ 116.537927194444435, -34.291248888888887 ] } },
{ "type": "Feature", "properties": { "XMP_Title": "", "SiteID": "NULL", "Corner": "NULL", "SourceFile": null, "filename_only": "20250516_081524", "img_rel": "photos/20250516_081524", "Distance_m": "NULL", "Latitude": "-34.298749", "Longitude": "116.538701" }, "geometry": { "type": "Point", "coordinates": [ 116.53870080555555, -34.298748805555554 ] } },
{ "type": "Feature", "properties": { "XMP_Title": "", "SiteID": "NULL", "Corner": "NULL", "SourceFile": null, "filename_only": "20250516_094030", "img_rel": "photos/20250516_094030", "Distance_m": "NULL", "Latitude": "-34.297756", "Longitude": "116.538576" }, "geometry": { "type": "Point", "coordinates": [ 116.538575694444447, -34.297756111111106 ] } },
{ "type": "Feature", "properties": { "XMP_Title": "", "SiteID": "NULL", "Corner": "NULL", "SourceFile": null, "filename_only": "20250516_104644", "img_rel": "photos/20250516_104644", "Distance_m": "NULL", "Latitude": "-34.297486", "Longitude": "116.537480" }, "geometry": { "type": "Point", "coordinates": [ 116.537480305555547, -34.2974865 ] } },
{ "type": "Feature", "properties": { "XMP_Title": "", "SiteID": "NULL", "Corner": "NULL", "SourceFile": null, "filename_only": "20250516_125945", "img_rel": "photos/20250516_125945", "Distance_m": "NULL", "Latitude": "-34.298762", "Longitude": "116.537380" }, "geometry": { "type": "Point", "coordinates": [ 116.53738, -34.298762 ] } },
{ "type": "Feature", "properties": { "XMP_Title": "", "SiteID": "NULL", "Corner": "NULL", "SourceFile": null, "filename_only": "20250519_114354", "img_rel": "photos/20250519_114354", "Distance_m": "NULL", "Latitude": "-33.899676", "Longitude": "115.707845" }, "geometry": { "type": "Point", "coordinates": [ 115.707844694444447, -33.899675611111114 ] } },
{ "type": "Feature", "properties": { "XMP_Title": "", "SiteID": "NULL", "Corner": "NULL", "SourceFile": null, "filename_only": "20250519_135808", "img_rel": "photos/20250519_135808", "Distance_m": "NULL", "Latitude": "-33.899751", "Longitude": "115.706661" }, "geometry": { "type": "Point", "coordinates": [ 115.706660694444452, -33.899751305555554 ] } },
{ "type": "Feature", "properties": { "XMP_Title": "", "SiteID": "NULL", "Corner": "NULL", "SourceFile": null, "filename_only": "20250519_163935", "img_rel": "photos/20250519_163935", "Distance_m": "NULL", "Latitude": "-33.900589", "Longitude": "115.706726" }, "geometry": { "type": "Point", "coordinates": [ 115.706725805555564, -33.9005888 ] } },
{ "type": "Feature", "properties": { "XMP_Title": "", "SiteID": "NULL", "Corner": "NULL", "SourceFile": null, "filename_only": "20250519_171038", "img_rel": "photos/20250519_171038", "Distance_m": "NULL", "Latitude": "-33.900585", "Longitude": "115.707805" }, "geometry": { "type": "Point", "coordinates": [ 115.707805388888886, -33.9005849 ] } },
{ "type": "Feature", "properties": { "XMP_Title": "", "SiteID": "NULL", "Corner": "NULL", "SourceFile": null, "filename_only": "20250520_080604", "img_rel": "photos/20250520_080604", "Distance_m": "NULL", "Latitude": "-34.224672", "Longitude": "115.562931" }, "geometry": { "type": "Point", "coordinates": [ 115.562931194444445, -34.224672 ] } },
{ "type": "Feature", "properties": { "XMP_Title": "", "SiteID": "NULL", "Corner": "NULL", "SourceFile": null, "filename_only": "20250520_100403", "img_rel": "photos/20250520_100403", "Distance_m": "NULL", "Latitude": "-34.225555", "Longitude": "115.562880" }, "geometry": { "type": "Point", "coordinates": [ 115.56288, -34.225555194444446 ] } },
{ "type": "Feature", "properties": { "XMP_Title": "", "SiteID": "NULL", "Corner": "NULL", "SourceFile": null, "filename_only": "20250520_134810", "img_rel": "photos/20250520_134810", "Distance_m": "NULL", "Latitude": "-34.225604", "Longitude": "115.561816" }, "geometry": { "type": "Point", "coordinates": [ 115.561816111111114, -34.225603694444445 ] } },
{ "type": "Feature", "properties": { "XMP_Title": "", "SiteID": "NULL", "Corner": "NULL", "SourceFile": null, "filename_only": "20250520_150654", "img_rel": "photos/20250520_150654", "Distance_m": "NULL", "Latitude": "-34.224709", "Longitude": "115.561821" }, "geometry": { "type": "Point", "coordinates": [ 115.561820694444435, -34.224709194444443 ] } },
{ "type": "Feature", "properties": { "XMP_Title": "", "SiteID": "NULL", "Corner": "NULL", "SourceFile": null, "filename_only": "20250522_080918", "img_rel": "photos/20250522_080918", "Distance_m": "NULL", "Latitude": "-34.235226", "Longitude": "115.554982" }, "geometry": { "type": "Point", "coordinates": [ 115.554982388888888, -34.2352256 ] } },
{ "type": "Feature", "properties": { "XMP_Title": "", "SiteID": "NULL", "Corner": "NULL", "SourceFile": null, "filename_only": "20250522_101229", "img_rel": "photos/20250522_101229", "Distance_m": "NULL", "Latitude": "-34.236228", "Longitude": "115.554924" }, "geometry": { "type": "Point", "coordinates": [ 115.554924, -34.236227611111111 ] } },
{ "type": "Feature", "properties": { "XMP_Title": "", "SiteID": "NULL", "Corner": "NULL", "SourceFile": null, "filename_only": "20250522_120400", "img_rel": "photos/20250522_120400", "Distance_m": "NULL", "Latitude": "-34.236081", "Longitude": "115.553871" }, "geometry": { "type": "Point", "coordinates": [ 115.553870805555547, -34.2360809 ] } },
{ "type": "Feature", "properties": { "XMP_Title": "", "SiteID": "NULL", "Corner": "NULL", "SourceFile": null, "filename_only": "20250522_145509", "img_rel": "photos/20250522_145509", "Distance_m": "NULL", "Latitude": "-33.900671", "Longitude": "115.707701" }, "geometry": { "type": "Point", "coordinates": [ 115.707700694444441, -33.9006709 ] } },
{ "type": "Feature", "properties": { "XMP_Title": "", "SiteID": "NULL", "Corner": "NULL", "SourceFile": null, "filename_only": "20250523_081854", "img_rel": "photos/20250523_081854", "Distance_m": "NULL", "Latitude": "-33.920245", "Longitude": "115.665004" }, "geometry": { "type": "Point", "coordinates": [ 115.665004111111116, -33.920245305555554 ] } },
{ "type": "Feature", "properties": { "XMP_Title": "", "SiteID": "NULL", "Corner": "NULL", "SourceFile": null, "filename_only": "20250523_100043", "img_rel": "photos/20250523_100043", "Distance_m": "NULL", "Latitude": "-33.919270", "Longitude": "115.665088" }, "geometry": { "type": "Point", "coordinates": [ 115.665088, -33.9192704 ] } },
{ "type": "Feature", "properties": { "XMP_Title": "", "SiteID": "NULL", "Corner": "NULL", "SourceFile": null, "filename_only": "20250523_114858", "img_rel": "photos/20250523_114858", "Distance_m": "NULL", "Latitude": "-33.919254", "Longitude": "115.664166" }, "geometry": { "type": "Point", "coordinates": [ 115.664166388888901, -33.9192544 ] } },
{ "type": "Feature", "properties": { "XMP_Title": "", "SiteID": "NULL", "Corner": "NULL", "SourceFile": null, "filename_only": "20250523_135314", "img_rel": "photos/20250523_135314", "Distance_m": "NULL", "Latitude": "-33.920201", "Longitude": "115.663975" }, "geometry": { "type": "Point", "coordinates": [ 115.663974611111115, -33.920200888888886 ] } },
{ "type": "Feature", "properties": { "XMP_Title": "", "SiteID": "NULL", "Corner": "NULL", "SourceFile": null, "filename_only": "20250526_113603", "img_rel": "photos/20250526_113603", "Distance_m": "NULL", "Latitude": "-33.903758", "Longitude": "115.694469" }, "geometry": { "type": "Point", "coordinates": [ 115.694468694444453, -33.903757611111111 ] } },
{ "type": "Feature", "properties": { "XMP_Title": "", "SiteID": "NULL", "Corner": "NULL", "SourceFile": null, "filename_only": "20250526_123951", "img_rel": "photos/20250526_123951", "Distance_m": "NULL", "Latitude": "-33.904649", "Longitude": "115.694451" }, "geometry": { "type": "Point", "coordinates": [ 115.6944515, -33.904648805555553 ] } },
{ "type": "Feature", "properties": { "XMP_Title": "", "SiteID": "NULL", "Corner": "NULL", "SourceFile": null, "filename_only": "20250526_143516", "img_rel": "photos/20250526_143516", "Distance_m": "NULL", "Latitude": "-33.904656", "Longitude": "115.693420" }, "geometry": { "type": "Point", "coordinates": [ 115.693420111111109, -33.904656111111109 ] } },
{ "type": "Feature", "properties": { "XMP_Title": "", "SiteID": "NULL", "Corner": "NULL", "SourceFile": null, "filename_only": "20250526_155958", "img_rel": "photos/20250526_155958", "Distance_m": "NULL", "Latitude": "-33.903703", "Longitude": "115.693416" }, "geometry": { "type": "Point", "coordinates": [ 115.693416, -33.903703194444446 ] } },
{ "type": "Feature", "properties": { "XMP_Title": "", "SiteID": "NULL", "Corner": "NULL", "SourceFile": null, "filename_only": "20250527_082607", "img_rel": "photos/20250527_082607", "Distance_m": "NULL", "Latitude": "-33.963131", "Longitude": "115.518336" }, "geometry": { "type": "Point", "coordinates": [ 115.5183361, -33.963130694444445 ] } },
{ "type": "Feature", "properties": { "XMP_Title": "", "SiteID": "NULL", "Corner": "NULL", "SourceFile": null, "filename_only": "20250527_102407", "img_rel": "photos/20250527_102407", "Distance_m": "NULL", "Latitude": "-33.964026", "Longitude": "115.518283" }, "geometry": { "type": "Point", "coordinates": [ 115.518283, -33.964026 ] } },
{ "type": "Feature", "properties": { "XMP_Title": "", "SiteID": "NULL", "Corner": "NULL", "SourceFile": null, "filename_only": "20250527_130617", "img_rel": "photos/20250527_130617", "Distance_m": "NULL", "Latitude": "-33.964079", "Longitude": "115.519344" }, "geometry": { "type": "Point", "coordinates": [ 115.5193439, -33.964078888888892 ] } },
{ "type": "Feature", "properties": { "XMP_Title": "", "SiteID": "NULL", "Corner": "NULL", "SourceFile": null, "filename_only": "20250527_154803", "img_rel": "photos/20250527_154803", "Distance_m": "NULL", "Latitude": "-33.963097", "Longitude": "115.519447" }, "geometry": { "type": "Point", "coordinates": [ 115.5194465, -33.96309738888889 ] } },
{ "type": "Feature", "properties": { "XMP_Title": "", "SiteID": "NULL", "Corner": "NULL", "SourceFile": null, "filename_only": "20250528_081835", "img_rel": "photos/20250528_081835", "Distance_m": "NULL", "Latitude": "-34.022394", "Longitude": "115.496285" }, "geometry": { "type": "Point", "coordinates": [ 115.49628519444444, -34.022394305555558 ] } },
{ "type": "Feature", "properties": { "XMP_Title": "", "SiteID": "NULL", "Corner": "NULL", "SourceFile": null, "filename_only": "20250528_095003", "img_rel": "photos/20250528_095003", "Distance_m": "NULL", "Latitude": "-34.022405", "Longitude": "115.497394" }, "geometry": { "type": "Point", "coordinates": [ 115.4973945, -34.022404805555553 ] } },
{ "type": "Feature", "properties": { "XMP_Title": "", "SiteID": "NULL", "Corner": "NULL", "SourceFile": null, "filename_only": "20250528_105713", "img_rel": "photos/20250528_105713", "Distance_m": "NULL", "Latitude": "-34.023289", "Longitude": "115.497353" }, "geometry": { "type": "Point", "coordinates": [ 115.497353388888897, -34.023289 ] } },
{ "type": "Feature", "properties": { "XMP_Title": "", "SiteID": "NULL", "Corner": "NULL", "SourceFile": null, "filename_only": "20250528_124431", "img_rel": "photos/20250528_124431", "Distance_m": "NULL", "Latitude": "-34.023283", "Longitude": "115.496323" }, "geometry": { "type": "Point", "coordinates": [ 115.496322694444444, -34.0232835 ] } },
{ "type": "Feature", "properties": { "XMP_Title": "", "SiteID": "NULL", "Corner": "NULL", "SourceFile": null, "filename_only": "20250528_141730", "img_rel": "photos/20250528_141730", "Distance_m": "NULL", "Latitude": "-34.007235", "Longitude": "115.486720" }, "geometry": { "type": "Point", "coordinates": [ 115.48672, -34.007235111111115 ] } },
{ "type": "Feature", "properties": { "XMP_Title": "", "SiteID": "NULL", "Corner": "NULL", "SourceFile": null, "filename_only": "20250528_152040", "img_rel": "photos/20250528_152040", "Distance_m": "NULL", "Latitude": "-34.006368", "Longitude": "115.486733" }, "geometry": { "type": "Point", "coordinates": [ 115.486732805555562, -34.006368 ] } },
{ "type": "Feature", "properties": { "XMP_Title": "", "SiteID": "NULL", "Corner": "NULL", "SourceFile": null, "filename_only": "20250529_084515", "img_rel": "photos/20250529_084515", "Distance_m": "NULL", "Latitude": "-34.006345", "Longitude": "115.485614" }, "geometry": { "type": "Point", "coordinates": [ 115.4856136, -34.006344611111111 ] } },
{ "type": "Feature", "properties": { "XMP_Title": "", "SiteID": "NULL", "Corner": "NULL", "SourceFile": null, "filename_only": "20250529_101218", "img_rel": "photos/20250529_101218", "Distance_m": "NULL", "Latitude": "-34.007212", "Longitude": "115.485624" }, "geometry": { "type": "Point", "coordinates": [ 115.4856237, -34.007212194444442 ] } },
{ "type": "Feature", "properties": { "XMP_Title": "", "SiteID": "NULL", "Corner": "NULL", "SourceFile": null, "filename_only": "20250605_083105", "img_rel": "photos/20250605_083105", "Distance_m": "NULL", "Latitude": "-31.393423", "Longitude": "116.309220" }, "geometry": { "type": "Point", "coordinates": [ 116.309220194444435, -31.393423194444445 ] } },
{ "type": "Feature", "properties": { "XMP_Title": "", "SiteID": "NULL", "Corner": "NULL", "SourceFile": null, "filename_only": "20250605_095718", "img_rel": "photos/20250605_095718", "Distance_m": "NULL", "Latitude": "-31.388792", "Longitude": "116.303612" }, "geometry": { "type": "Point", "coordinates": [ 116.303611694444442, -31.388791694444443 ] } },
{ "type": "Feature", "properties": { "XMP_Title": "", "SiteID": "NULL", "Corner": "NULL", "SourceFile": null, "filename_only": "20250605_105556", "img_rel": "photos/20250605_105556", "Distance_m": "NULL", "Latitude": "-31.389762", "Longitude": "116.303618" }, "geometry": { "type": "Point", "coordinates": [ 116.30361830555556, -31.389762305555553 ] } },
{ "type": "Feature", "properties": { "XMP_Title": "", "SiteID": "NULL", "Corner": "NULL", "SourceFile": null, "filename_only": "20250605_120715", "img_rel": "photos/20250605_120715", "Distance_m": "NULL", "Latitude": "-31.389678", "Longitude": "116.302532" }, "geometry": { "type": "Point", "coordinates": [ 116.302532, -31.389678194444443 ] } },
{ "type": "Feature", "properties": { "XMP_Title": "", "SiteID": "NULL", "Corner": "NULL", "SourceFile": null, "filename_only": "20250605_130916", "img_rel": "photos/20250605_130916", "Distance_m": "NULL", "Latitude": "-31.388754", "Longitude": "116.302464" }, "geometry": { "type": "Point", "coordinates": [ 116.3024642, -31.388754388888888 ] } }
]
}
