{
"type": "FeatureCollection",
"name": "spring_photos",
"crs": { "type": "name", "properties": { "name": "urn:ogc:def:crs:OGC:1.3:CRS84" } },
"features": [
{ "type": "Feature", "properties": { "XMP_Title": "jnw1a_NE", "SiteID": "jnw1a", "Corner": "NE", "SourceFile": "C:\\FHMP\\temp_photo_folder\\20250901_121339.jpg", "filename_only": "20250901_121339.jpg", "img_rel": "photos/20250901_121339.jpg", "Distance_m": null, "Latitude": "-32.224046", "Longitude": "116.199583" }, "geometry": { "type": "Point", "coordinates": [ 116.199583194444429, -32.224045694444442 ] } },
{ "type": "Feature", "properties": { "XMP_Title": "jnw1a_SE", "SiteID": "jnw1a", "Corner": "SE", "SourceFile": "C:\\FHMP\\temp_photo_folder\\20250901_133358.jpg", "filename_only": "20250901_133358.jpg", "img_rel": "photos/20250901_133358.jpg", "Distance_m": null, "Latitude": "-32.225066", "Longitude": "116.199555" }, "geometry": { "type": "Point", "coordinates": [ 116.199554611111111, -32.225066388888898 ] } },
{ "type": "Feature", "properties": { "XMP_Title": "jnw1a_SW", "SiteID": "jnw1a", "Corner": "SW", "SourceFile": "C:\\FHMP\\temp_photo_folder\\20250902_085030.jpg", "filename_only": "20250902_085030.jpg", "img_rel": "photos/20250902_085030.jpg", "Distance_m": null, "Latitude": "-32.224942", "Longitude": "116.198562" }, "geometry": { "type": "Point", "coordinates": [ 116.19856169444445, -32.224941694444446 ] } },
{ "type": "Feature", "properties": { "XMP_Title": "jnw1a_NW", "SiteID": "jnw1a", "Corner": "NW", "SourceFile": "C:\\FHMP\\temp_photo_folder\\20250902_112824.jpg", "filename_only": "20250902_112824.jpg", "img_rel": "photos/20250902_112824.jpg", "Distance_m": null, "Latitude": "-32.224036", "Longitude": "116.198556" }, "geometry": { "type": "Point", "coordinates": [ 116.198556111111117, -32.2240365 ] } },
{ "type": "Feature", "properties": { "XMP_Title": "jnw1c_SW", "SiteID": "jnw1c", "Corner": "SW", "SourceFile": "C:\\FHMP\\temp_photo_folder\\20250903_100421.jpg", "filename_only": "20250903_100421.jpg", "img_rel": "photos/20250903_100421.jpg", "Distance_m": null, "Latitude": "-32.243216", "Longitude": "116.203172" }, "geometry": { "type": "Point", "coordinates": [ 116.203172194444448, -32.243216 ] } },
{ "type": "Feature", "properties": { "XMP_Title": "jnw1c_SE", "SiteID": "jnw1c", "Corner": "SE", "SourceFile": "C:\\FHMP\\temp_photo_folder\\20250903_102647.jpg", "filename_only": "20250903_102647.jpg", "img_rel": "photos/20250903_102647.jpg", "Distance_m": null, "Latitude": "-32.243217", "Longitude": "116.204214" }, "geometry": { "type": "Point", "coordinates": [ 116.204213694444462, -32.243217194444448 ] } },
{ "type": "Feature", "properties": { "XMP_Title": "jnw1c_NE", "SiteID": "jnw1c", "Corner": "NE", "SourceFile": "C:\\FHMP\\temp_photo_folder\\20250903_125919.jpg", "filename_only": "20250903_125919.jpg", "img_rel": "photos/20250903_125919.jpg", "Distance_m": null, "Latitude": "-32.242370", "Longitude": "116.204234" }, "geometry": { "type": "Point", "coordinates": [ 116.204233888888893, -32.2423695 ] } },
{ "type": "Feature", "properties": { "XMP_Title": "jnw1c_NW", "SiteID": "jnw1c", "Corner": "NW", "SourceFile": "C:\\FHMP\\temp_photo_folder\\20250903_153903.jpg", "filename_only": "20250903_153903.jpg", "img_rel": "photos/20250903_153903.jpg", "Distance_m": null, "Latitude": "-32.242324", "Longitude": "116.203172" }, "geometry": { "type": "Point", "coordinates": [ 116.203172111111115, -32.242324 ] } },
{ "type": "Feature", "properties": { "XMP_Title": "jnw1b_SE", "SiteID": "jnw1b", "Corner": "SE", "SourceFile": "C:\\FHMP\\temp_photo_folder\\20250904_104414.jpg", "filename_only": "20250904_104414.jpg", "img_rel": "photos/20250904_104414.jpg", "Distance_m": null, "Latitude": "-32.258299", "Longitude": "116.194700" }, "geometry": { "type": "Point", "coordinates": [ 116.194700111111104, -32.258299 ] } },
{ "type": "Feature", "properties": { "XMP_Title": "jnw1b_NW", "SiteID": "jnw1b", "Corner": "NW", "SourceFile": "C:\\FHMP\\temp_photo_folder\\20250904_111910.jpg", "filename_only": "20250904_111910.jpg", "img_rel": "photos/20250904_111910.jpg", "Distance_m": null, "Latitude": "-32.257287", "Longitude": "116.193703" }, "geometry": { "type": "Point", "coordinates": [ 116.193703194444467, -32.2572875 ] } },
{ "type": "Feature", "properties": { "XMP_Title": "jnw1b_SW", "SiteID": "jnw1b", "Corner": "SW", "SourceFile": "C:\\FHMP\\temp_photo_folder\\20250904_140228.jpg", "filename_only": "20250904_140228.jpg", "img_rel": "photos/20250904_140228.jpg", "Distance_m": null, "Latitude": "-32.258274", "Longitude": "116.193554" }, "geometry": { "type": "Point", "coordinates": [ 116.193554194444431, -32.258273611111115 ] } },
{ "type": "Feature", "properties": { "XMP_Title": "jnw1b_NE", "SiteID": "jnw1b", "Corner": "NE", "SourceFile": "C:\\FHMP\\temp_photo_folder\\20250904_161445.jpg", "filename_only": "20250904_161445.jpg", "img_rel": "photos/20250904_161445.jpg", "Distance_m": null, "Latitude": "-32.257315", "Longitude": "116.194827" }, "geometry": { "type": "Point", "coordinates": [ 116.194827388888896, -32.257315194444445 ] } },
{ "type": "Feature", "properties": { "XMP_Title": "jne4b_SE", "SiteID": "jne4b", "Corner": "SE", "SourceFile": "C:\\FHMP\\temp_photo_folder\\20250908_091523.jpg", "filename_only": "20250908_091523.jpg", "img_rel": "photos/20250908_091523.jpg", "Distance_m": null, "Latitude": "-32.458456", "Longitude": "116.395156" }, "geometry": { "type": "Point", "coordinates": [ 116.395156, -32.458455611111106 ] } },
{ "type": "Feature", "properties": { "XMP_Title": "jne4b_SW", "SiteID": "jne4b", "Corner": "SW", "SourceFile": "C:\\FHMP\\temp_photo_folder\\20250908_112335.jpg", "filename_only": "20250908_112335.jpg", "img_rel": "photos/20250908_112335.jpg", "Distance_m": null, "Latitude": "-32.458458", "Longitude": "116.394057" }, "geometry": { "type": "Point", "coordinates": [ 116.394056611111111, -32.4584575 ] } },
{ "type": "Feature", "properties": { "XMP_Title": "jne4b_NW", "SiteID": "jne4b", "Corner": "NW", "SourceFile": "C:\\FHMP\\temp_photo_folder\\20250908_134145.jpg", "filename_only": "20250908_134145.jpg", "img_rel": "photos/20250908_134145.jpg", "Distance_m": null, "Latitude": "-32.457558", "Longitude": "116.394094" }, "geometry": { "type": "Point", "coordinates": [ 116.394093888888889, -32.457558388888899 ] } },
{ "type": "Feature", "properties": { "XMP_Title": "jne4b_NE", "SiteID": "jne4b", "Corner": "NE", "SourceFile": "C:\\FHMP\\temp_photo_folder\\20250908_152638.jpg", "filename_only": "20250908_152638.jpg", "img_rel": "photos/20250908_152638.jpg", "Distance_m": null, "Latitude": "-32.457567", "Longitude": "116.395234" }, "geometry": { "type": "Point", "coordinates": [ 116.395233611111138, -32.457566805555551 ] } },
{ "type": "Feature", "properties": { "XMP_Title": "jne4a_NE", "SiteID": "jne4a", "Corner": "NE", "SourceFile": "C:\\FHMP\\temp_photo_folder\\20250909_090415.jpg", "filename_only": "20250909_090415.jpg", "img_rel": "photos/20250909_090415.jpg", "Distance_m": null, "Latitude": "-32.468339", "Longitude": "116.361151" }, "geometry": { "type": "Point", "coordinates": [ 116.361150805555553, -32.468339300000011 ] } },
{ "type": "Feature", "properties": { "XMP_Title": "jne4a_SW", "SiteID": "jne4a", "Corner": "SW", "SourceFile": "C:\\FHMP\\temp_photo_folder\\20250909_112142.jpg", "filename_only": "20250909_112142.jpg", "img_rel": "photos/20250909_112142.jpg", "Distance_m": null, "Latitude": "-32.469216", "Longitude": "116.360022" }, "geometry": { "type": "Point", "coordinates": [ 116.360021805555547, -32.4692161 ] } },
{ "type": "Feature", "properties": { "XMP_Title": "jne4a_NW", "SiteID": "jne4a", "Corner": "NW", "SourceFile": "C:\\FHMP\\temp_photo_folder\\20250909_135518.jpg", "filename_only": "20250909_135518.jpg", "img_rel": "photos/20250909_135518.jpg", "Distance_m": null, "Latitude": "-32.468287", "Longitude": "116.359998" }, "geometry": { "type": "Point", "coordinates": [ 116.359997611111112, -32.468287 ] } },
{ "type": "Feature", "properties": { "XMP_Title": "jne4a_SE", "SiteID": "jne4a", "Corner": "SE", "SourceFile": "C:\\FHMP\\temp_photo_folder\\20250909_155003.jpg", "filename_only": "20250909_155003.jpg", "img_rel": "photos/20250909_155003.jpg", "Distance_m": null, "Latitude": "-32.469200", "Longitude": "116.361101" }, "geometry": { "type": "Point", "coordinates": [ 116.361101388888883, -32.469199899999985 ] } },
{ "type": "Feature", "properties": { "XMP_Title": "jnw4c_NW", "SiteID": "jnw4c", "Corner": "NW", "SourceFile": "C:\\FHMP\\temp_photo_folder\\20250922_113457.jpg", "filename_only": "20250922_113457.jpg", "img_rel": "photos/20250922_113457.jpg", "Distance_m": null, "Latitude": "-33.149463", "Longitude": "116.203415" }, "geometry": { "type": "Point", "coordinates": [ 116.203415194444446, -33.14946311111111 ] } },
{ "type": "Feature", "properties": { "XMP_Title": "jnw4c_NE", "SiteID": "jnw4c", "Corner": "NE", "SourceFile": "C:\\FHMP\\temp_photo_folder\\20250922_120931.jpg", "filename_only": "20250922_120931.jpg", "img_rel": "photos/20250922_120931.jpg", "Distance_m": null, "Latitude": "-33.149482", "Longitude": "116.204565" }, "geometry": { "type": "Point", "coordinates": [ 116.20456488888891, -33.149482 ] } },
{ "type": "Feature", "properties": { "XMP_Title": "jnw4c_SE", "SiteID": "jnw4c", "Corner": "SE", "SourceFile": "C:\\FHMP\\temp_photo_folder\\20250922_151337.jpg", "filename_only": "20250922_151337.jpg", "img_rel": "photos/20250922_151337.jpg", "Distance_m": null, "Latitude": "-33.150417", "Longitude": "116.204471" }, "geometry": { "type": "Point", "coordinates": [ 116.204470888888892, -33.1504168 ] } },
{ "type": "Feature", "properties": { "XMP_Title": "jnw4c_SW", "SiteID": "jnw4c", "Corner": "SW", "SourceFile": "C:\\FHMP\\temp_photo_folder\\20250922_173840.jpg", "filename_only": "20250922_173840.jpg", "img_rel": "photos/20250922_173840.jpg", "Distance_m": null, "Latitude": "-33.150428", "Longitude": "116.203599" }, "geometry": { "type": "Point", "coordinates": [ 116.203598888888905, -33.1504283 ] } },
{ "type": "Feature", "properties": { "XMP_Title": "jnw4b_NW", "SiteID": "jnw4b", "Corner": "NW", "SourceFile": "C:\\FHMP\\temp_photo_folder\\20250923_093030.jpg", "filename_only": "20250923_093030.jpg", "img_rel": "photos/20250923_093030.jpg", "Distance_m": null, "Latitude": "-33.137718", "Longitude": "116.225579" }, "geometry": { "type": "Point", "coordinates": [ 116.22557888888889, -33.137717805555553 ] } },
{ "type": "Feature", "properties": { "XMP_Title": "jnw4b_NE", "SiteID": "jnw4b", "Corner": "NE", "SourceFile": "C:\\FHMP\\temp_photo_folder\\20250923_120059.jpg", "filename_only": "20250923_120059.jpg", "img_rel": "photos/20250923_120059.jpg", "Distance_m": null, "Latitude": "-33.137680", "Longitude": "116.226554" }, "geometry": { "type": "Point", "coordinates": [ 116.226554, -33.137680305555556 ] } },
{ "type": "Feature", "properties": { "XMP_Title": "jnw4b_SE", "SiteID": "jnw4b", "Corner": "SE", "SourceFile": "C:\\FHMP\\temp_photo_folder\\20250923_144706.jpg", "filename_only": "20250923_144706.jpg", "img_rel": "photos/20250923_144706.jpg", "Distance_m": null, "Latitude": "-33.138584", "Longitude": "116.226729" }, "geometry": { "type": "Point", "coordinates": [ 116.226729388888884, -33.138583694444442 ] } },
{ "type": "Feature", "properties": { "XMP_Title": "jnw4b_SW", "SiteID": "jnw4b", "Corner": "SW", "SourceFile": "C:\\FHMP\\temp_photo_folder\\20250923_170257.jpg", "filename_only": "20250923_170257.jpg", "img_rel": "photos/20250923_170257.jpg", "Distance_m": null, "Latitude": "-33.138560", "Longitude": "116.225575" }, "geometry": { "type": "Point", "coordinates": [ 116.225575194444431, -33.138559888888885 ] } },
{ "type": "Feature", "properties": { "XMP_Title": "jnw4a_NE", "SiteID": "jnw4a", "Corner": "NE", "SourceFile": "C:\\FHMP\\temp_photo_folder\\20250924_090400.jpg", "filename_only": "20250924_090400.jpg", "img_rel": "photos/20250924_090400.jpg", "Distance_m": null, "Latitude": "-33.133419", "Longitude": "116.227359" }, "geometry": { "type": "Point", "coordinates": [ 116.227358888888887, -33.133419199722226 ] } },
{ "type": "Feature", "properties": { "XMP_Title": "jnw4a_SE", "SiteID": "jnw4a", "Corner": "SE", "SourceFile": "C:\\FHMP\\temp_photo_folder\\20250924_111602.jpg", "filename_only": "20250924_111602.jpg", "img_rel": "photos/20250924_111602.jpg", "Distance_m": null, "Latitude": "-33.134369", "Longitude": "116.227390" }, "geometry": { "type": "Point", "coordinates": [ 116.2273905, -33.1343686 ] } },
{ "type": "Feature", "properties": { "XMP_Title": "jnw4a_SW", "SiteID": "jnw4a", "Corner": "SW", "SourceFile": "C:\\FHMP\\temp_photo_folder\\20250924_133342.jpg", "filename_only": "20250924_133342.jpg", "img_rel": "photos/20250924_133342.jpg", "Distance_m": null, "Latitude": "-33.134237", "Longitude": "116.226235" }, "geometry": { "type": "Point", "coordinates": [ 116.226234694444443, -33.1342368 ] } },
{ "type": "Feature", "properties": { "XMP_Title": "jnw4a_NW", "SiteID": "jnw4a", "Corner": "NW", "SourceFile": "C:\\FHMP\\temp_photo_folder\\20250924_152926.jpg", "filename_only": "20250924_152926.jpg", "img_rel": "photos/20250924_152926.jpg", "Distance_m": null, "Latitude": "-33.133423", "Longitude": "116.226325" }, "geometry": { "type": "Point", "coordinates": [ 116.22632461111111, -33.1334226 ] } },
{ "type": "Feature", "properties": { "XMP_Title": "jnw3a_NE", "SiteID": "jnw3a", "Corner": "NE", "SourceFile": "C:\\FHMP\\temp_photo_folder\\20250925_080339.jpg", "filename_only": "20250925_080339.jpg", "img_rel": "photos/20250925_080339.jpg", "Distance_m": null, "Latitude": "-33.017082", "Longitude": "116.211579" }, "geometry": { "type": "Point", "coordinates": [ 116.21157930555556, -33.0170824 ] } },
{ "type": "Feature", "properties": { "XMP_Title": "jnw3a_SE", "SiteID": "jnw3a", "Corner": "SE", "SourceFile": "C:\\FHMP\\temp_photo_folder\\20250925_102606.jpg", "filename_only": "20250925_102606.jpg", "img_rel": "photos/20250925_102606.jpg", "Distance_m": null, "Latitude": "-33.017933", "Longitude": "116.211544" }, "geometry": { "type": "Point", "coordinates": [ 116.211544111111124, -33.0179326 ] } },
{ "type": "Feature", "properties": { "XMP_Title": "jnw3a_SE", "SiteID": "jnw3a", "Corner": "SE", "SourceFile": "C:\\FHMP\\temp_photo_folder\\20250925_102611.jpg", "filename_only": "20250925_102611.jpg", "img_rel": "photos/20250925_102611.jpg", "Distance_m": null, "Latitude": "-33.017933", "Longitude": "116.211544" }, "geometry": { "type": "Point", "coordinates": [ 116.211544111111124, -33.0179326 ] } },
{ "type": "Feature", "properties": { "XMP_Title": "jnw3a_SE", "SiteID": "jnw3a", "Corner": "SE", "SourceFile": "C:\\FHMP\\temp_photo_folder\\20250925_102635.jpg", "filename_only": "20250925_102635.jpg", "img_rel": "photos/20250925_102635.jpg", "Distance_m": null, "Latitude": "-33.017933", "Longitude": "116.211544" }, "geometry": { "type": "Point", "coordinates": [ 116.211544111111124, -33.0179326 ] } },
{ "type": "Feature", "properties": { "XMP_Title": "jnw3a_SW", "SiteID": "jnw3a", "Corner": "SW", "SourceFile": "C:\\FHMP\\temp_photo_folder\\20250925_130635.jpg", "filename_only": "20250925_130635.jpg", "img_rel": "photos/20250925_130635.jpg", "Distance_m": null, "Latitude": "-33.017969", "Longitude": "116.210488" }, "geometry": { "type": "Point", "coordinates": [ 116.210488, -33.0179687 ] } },
{ "type": "Feature", "properties": { "XMP_Title": "jnw3a_NW", "SiteID": "jnw3a", "Corner": "NW", "SourceFile": "C:\\FHMP\\temp_photo_folder\\20250925_152410.jpg", "filename_only": "20250925_152410.jpg", "img_rel": "photos/20250925_152410.jpg", "Distance_m": null, "Latitude": "-33.017022", "Longitude": "116.210546" }, "geometry": { "type": "Point", "coordinates": [ 116.210545805555569, -33.0170224 ] } },
{ "type": "Feature", "properties": { "XMP_Title": "jnw3b_NE", "SiteID": "jnw3b", "Corner": "NE", "SourceFile": "C:\\FHMP\\temp_photo_folder\\20250926_073709.jpg", "filename_only": "20250926_073709.jpg", "img_rel": "photos/20250926_073709.jpg", "Distance_m": null, "Latitude": "-33.010219", "Longitude": "116.210158" }, "geometry": { "type": "Point", "coordinates": [ 116.210158305555538, -33.010219194444446 ] } },
{ "type": "Feature", "properties": { "XMP_Title": "jnw3b_SE", "SiteID": "jnw3b", "Corner": "SE", "SourceFile": "C:\\FHMP\\temp_photo_folder\\20250926_092229.jpg", "filename_only": "20250926_092229.jpg", "img_rel": "photos/20250926_092229.jpg", "Distance_m": null, "Latitude": "-33.011025", "Longitude": "116.210080" }, "geometry": { "type": "Point", "coordinates": [ 116.210080194444444, -33.011024611111118 ] } },
{ "type": "Feature", "properties": { "XMP_Title": "jnw3b_NW", "SiteID": "jnw3b", "Corner": "NW", "SourceFile": "C:\\FHMP\\temp_photo_folder\\20250926_114047.jpg", "filename_only": "20250926_114047.jpg", "img_rel": "photos/20250926_114047.jpg", "Distance_m": null, "Latitude": "-33.009947", "Longitude": "116.209021" }, "geometry": { "type": "Point", "coordinates": [ 116.209021388888885, -33.009947194444436 ] } },
{ "type": "Feature", "properties": { "XMP_Title": "jnw3b_SW", "SiteID": "jnw3b", "Corner": "SW", "SourceFile": "C:\\FHMP\\temp_photo_folder\\20250926_144311.jpg", "filename_only": "20250926_144311.jpg", "img_rel": "photos/20250926_144311.jpg", "Distance_m": null, "Latitude": "-33.011064", "Longitude": "116.208933" }, "geometry": { "type": "Point", "coordinates": [ 116.208933388888894, -33.011064 ] } },
{ "type": "Feature", "properties": { "XMP_Title": "wnd2b_NW", "SiteID": "wnd2b", "Corner": "NW", "SourceFile": "C:\\FHMP\\temp_photo_folder\\20250930_093514.jpg", "filename_only": "20250930_093514.jpg", "img_rel": "photos/20250930_093514.jpg", "Distance_m": null, "Latitude": "-32.184119", "Longitude": "116.587174" }, "geometry": { "type": "Point", "coordinates": [ 116.587174111111125, -32.1841189 ] } },
{ "type": "Feature", "properties": { "XMP_Title": "wnd2b_NE", "SiteID": "wnd2b", "Corner": "NE", "SourceFile": "C:\\FHMP\\temp_photo_folder\\20250930_122429.jpg", "filename_only": "20250930_122429.jpg", "img_rel": "photos/20250930_122429.jpg", "Distance_m": null, "Latitude": "-32.184131", "Longitude": "116.588200" }, "geometry": { "type": "Point", "coordinates": [ 116.5882, -32.1841307 ] } },
{ "type": "Feature", "properties": { "XMP_Title": "wnd2b_SE", "SiteID": "wnd2b", "Corner": "SE", "SourceFile": "C:\\FHMP\\temp_photo_folder\\20250930_150224.jpg", "filename_only": "20250930_150224.jpg", "img_rel": "photos/20250930_150224.jpg", "Distance_m": null, "Latitude": "-32.185042", "Longitude": "116.588236" }, "geometry": { "type": "Point", "coordinates": [ 116.588236111111101, -32.1850424 ] } },
{ "type": "Feature", "properties": { "XMP_Title": "wnd2b_SW", "SiteID": "wnd2b", "Corner": "SW", "SourceFile": "C:\\FHMP\\temp_photo_folder\\20250930_165201.jpg", "filename_only": "20250930_165201.jpg", "img_rel": "photos/20250930_165201.jpg", "Distance_m": null, "Latitude": "-32.185069", "Longitude": "116.587143" }, "geometry": { "type": "Point", "coordinates": [ 116.587143, -32.1850695 ] } },
{ "type": "Feature", "properties": { "XMP_Title": "wnd2a_NE", "SiteID": "wnd2a", "Corner": "NE", "SourceFile": "C:\\FHMP\\temp_photo_folder\\20251001_085723.jpg", "filename_only": "20251001_085723.jpg", "img_rel": "photos/20251001_085723.jpg", "Distance_m": null, "Latitude": "-32.180449", "Longitude": "116.585813" }, "geometry": { "type": "Point", "coordinates": [ 116.5858127, -32.180449111111116 ] } },
{ "type": "Feature", "properties": { "XMP_Title": "wnd2a_NW", "SiteID": "wnd2a", "Corner": "NW", "SourceFile": "C:\\FHMP\\temp_photo_folder\\20251001_104618.jpg", "filename_only": "20251001_104618.jpg", "img_rel": "photos/20251001_104618.jpg", "Distance_m": null, "Latitude": "-32.180447", "Longitude": "116.584791" }, "geometry": { "type": "Point", "coordinates": [ 116.584790900000016, -32.180446888888888 ] } },
{ "type": "Feature", "properties": { "XMP_Title": "wnd2a_SE", "SiteID": "wnd2a", "Corner": "SE", "SourceFile": "C:\\FHMP\\temp_photo_folder\\20251001_123955.jpg", "filename_only": "20251001_123955.jpg", "img_rel": "photos/20251001_123955.jpg", "Distance_m": null, "Latitude": "-32.181305", "Longitude": "116.585764" }, "geometry": { "type": "Point", "coordinates": [ 116.585764400000016, -32.181304694444442 ] } },
{ "type": "Feature", "properties": { "XMP_Title": "wnd2a_SW", "SiteID": "wnd2a", "Corner": "SW", "SourceFile": "C:\\FHMP\\temp_photo_folder\\20251001_142600.jpg", "filename_only": "20251001_142600.jpg", "img_rel": "photos/20251001_142600.jpg", "Distance_m": null, "Latitude": "-32.181360", "Longitude": "116.584825" }, "geometry": { "type": "Point", "coordinates": [ 116.584825, -32.1813605 ] } },
{ "type": "Feature", "properties": { "XMP_Title": "jse7a_NW", "SiteID": "jse7a", "Corner": "NW", "SourceFile": "C:\\FHMP\\temp_photo_folder\\20251006_120426.jpg", "filename_only": "20251006_120426.jpg", "img_rel": "photos/20251006_120426.jpg", "Distance_m": null, "Latitude": "-34.085963", "Longitude": "116.005410" }, "geometry": { "type": "Point", "coordinates": [ 116.005410194444465, -34.0859632 ] } },
{ "type": "Feature", "properties": { "XMP_Title": "jse7a_NE", "SiteID": "jse7a", "Corner": "NE", "SourceFile": "C:\\FHMP\\temp_photo_folder\\20251006_142408.jpg", "filename_only": "20251006_142408.jpg", "img_rel": "photos/20251006_142408.jpg", "Distance_m": null, "Latitude": "-34.085991", "Longitude": "116.006553" }, "geometry": { "type": "Point", "coordinates": [ 116.006552888888891, -34.0859908 ] } },
{ "type": "Feature", "properties": { "XMP_Title": "jse7c_SE", "SiteID": "jse7c", "Corner": "SE", "SourceFile": "C:\\FHMP\\temp_photo_folder\\20251007_091502.jpg", "filename_only": "20251007_091502.jpg", "img_rel": "photos/20251007_091502.jpg", "Distance_m": null, "Latitude": "-34.091505", "Longitude": "116.028311" }, "geometry": { "type": "Point", "coordinates": [ 116.028310805555535, -34.091505 ] } },
{ "type": "Feature", "properties": { "XMP_Title": "jse7c_NE", "SiteID": "jse7c", "Corner": "NE", "SourceFile": "C:\\FHMP\\temp_photo_folder\\20251007_113326.jpg", "filename_only": "20251007_113326.jpg", "img_rel": "photos/20251007_113326.jpg", "Distance_m": null, "Latitude": "-34.090661", "Longitude": "116.028267" }, "geometry": { "type": "Point", "coordinates": [ 116.028266888888908, -34.090661194444451 ] } },
{ "type": "Feature", "properties": { "XMP_Title": "jse7c_NW", "SiteID": "jse7c", "Corner": "NW", "SourceFile": "C:\\FHMP\\temp_photo_folder\\20251007_153559.jpg", "filename_only": "20251007_153559.jpg", "img_rel": "photos/20251007_153559.jpg", "Distance_m": null, "Latitude": "-34.090557", "Longitude": "116.027280" }, "geometry": { "type": "Point", "coordinates": [ 116.027280388888883, -34.090556805555558 ] } },
{ "type": "Feature", "properties": { "XMP_Title": "jse7b_NW", "SiteID": "jse7b", "Corner": "NW", "SourceFile": "C:\\FHMP\\temp_photo_folder\\20251008_082711.jpg", "filename_only": "20251008_082711.jpg", "img_rel": "photos/20251008_082711.jpg", "Distance_m": null, "Latitude": "-34.092066", "Longitude": "116.029753" }, "geometry": { "type": "Point", "coordinates": [ 116.029753499999984, -34.0920655 ] } },
{ "type": "Feature", "properties": { "XMP_Title": "jse7b_NE", "SiteID": "jse7b", "Corner": "NE", "SourceFile": "C:\\FHMP\\temp_photo_folder\\20251008_101903.jpg", "filename_only": "20251008_101903.jpg", "img_rel": "photos/20251008_101903.jpg", "Distance_m": null, "Latitude": "-34.092081", "Longitude": "116.030655" }, "geometry": { "type": "Point", "coordinates": [ 116.030654611111117, -34.092080805555561 ] } },
{ "type": "Feature", "properties": { "XMP_Title": "jse7b_SW", "SiteID": "jse7b", "Corner": "SW", "SourceFile": "C:\\FHMP\\temp_photo_folder\\20251008_115928.jpg", "filename_only": "20251008_115928.jpg", "img_rel": "photos/20251008_115928.jpg", "Distance_m": null, "Latitude": "-34.092968", "Longitude": "116.029694" }, "geometry": { "type": "Point", "coordinates": [ 116.029694, -34.0929675 ] } },
{ "type": "Feature", "properties": { "XMP_Title": "jse7b_SE", "SiteID": "jse7b", "Corner": "SE", "SourceFile": "C:\\FHMP\\temp_photo_folder\\20251008_140434.jpg", "filename_only": "20251008_140434.jpg", "img_rel": "photos/20251008_140434.jpg", "Distance_m": null, "Latitude": "-34.092947", "Longitude": "116.030814" }, "geometry": { "type": "Point", "coordinates": [ 116.030813805555567, -34.092946805555549 ] } },
{ "type": "Feature", "properties": { "XMP_Title": "jse7a_SW", "SiteID": "jse7a", "Corner": "SW", "SourceFile": "C:\\FHMP\\temp_photo_folder\\20251009_083612.jpg", "filename_only": "20251009_083612.jpg", "img_rel": "photos/20251009_083612.jpg", "Distance_m": null, "Latitude": "-34.086891", "Longitude": "116.005527" }, "geometry": { "type": "Point", "coordinates": [ 116.005526694444455, -34.0868915 ] } },
{ "type": "Feature", "properties": { "XMP_Title": "jnw3c_NW", "SiteID": "jnw3c", "Corner": "NW", "SourceFile": "C:\\FHMP\\temp_photo_folder\\20251009_145048.jpg", "filename_only": "20251009_145048.jpg", "img_rel": "photos/20251009_145048.jpg", "Distance_m": null, "Latitude": "-32.995678", "Longitude": "116.242062" }, "geometry": { "type": "Point", "coordinates": [ 116.24206211111111, -32.995677611111113 ] } },
{ "type": "Feature", "properties": { "XMP_Title": "jnw3c_NE", "SiteID": "jnw3c", "Corner": "NE", "SourceFile": "C:\\FHMP\\temp_photo_folder\\20251009_173201.jpg", "filename_only": "20251009_173201.jpg", "img_rel": "photos/20251009_173201.jpg", "Distance_m": null, "Latitude": "-32.995736", "Longitude": "116.243142" }, "geometry": { "type": "Point", "coordinates": [ 116.243141805555538, -32.995736499999985 ] } },
{ "type": "Feature", "properties": { "XMP_Title": "jnw3c_SW", "SiteID": "jnw3c", "Corner": "SW", "SourceFile": "C:\\FHMP\\temp_photo_folder\\20251010_100755.jpg", "filename_only": "20251010_100755.jpg", "img_rel": "photos/20251010_100755.jpg", "Distance_m": null, "Latitude": "-32.996635", "Longitude": "116.242021" }, "geometry": { "type": "Point", "coordinates": [ 116.242021, -32.996635194444437 ] } },
{ "type": "Feature", "properties": { "XMP_Title": "jnw3c_CEN", "SiteID": "jnw3c", "Corner": "CEN", "SourceFile": "C:\\FHMP\\temp_photo_folder\\20251010_123105.jpg", "filename_only": "20251010_123105.jpg", "img_rel": "photos/20251010_123105.jpg", "Distance_m": null, "Latitude": "-32.996355", "Longitude": "116.242861" }, "geometry": { "type": "Point", "coordinates": [ 116.242860611111126, -32.996355388888894 ] } },
{ "type": "Feature", "properties": { "XMP_Title": "jbw4b_SE", "SiteID": "jbw4b", "Corner": "SE", "SourceFile": "C:\\FHMP\\temp_photo_folder\\20251013_094944.jpg", "filename_only": "20251013_094944.jpg", "img_rel": "photos/20251013_094944.jpg", "Distance_m": null, "Latitude": "-33.881703", "Longitude": "115.277250" }, "geometry": { "type": "Point", "coordinates": [ 115.277249888888889, -33.881703 ] } },
{ "type": "Feature", "properties": { "XMP_Title": "jbw4b_NE", "SiteID": "jbw4b", "Corner": "NE", "SourceFile": "C:\\FHMP\\temp_photo_folder\\20251013_122042.jpg", "filename_only": "20251013_122042.jpg", "img_rel": "photos/20251013_122042.jpg", "Distance_m": null, "Latitude": "-33.881079", "Longitude": "115.277222" }, "geometry": { "type": "Point", "coordinates": [ 115.277222388888902, -33.881079 ] } },
{ "type": "Feature", "properties": { "XMP_Title": "jbw4b_SW", "SiteID": "jbw4b", "Corner": "SW", "SourceFile": "C:\\FHMP\\temp_photo_folder\\20251013_142938.jpg", "filename_only": "20251013_142938.jpg", "img_rel": "photos/20251013_142938.jpg", "Distance_m": null, "Latitude": "-33.881769", "Longitude": "115.276234" }, "geometry": { "type": "Point", "coordinates": [ 115.27623361111111, -33.881769194444452 ] } },
{ "type": "Feature", "properties": { "XMP_Title": "jbw4b_NW", "SiteID": "jbw4b", "Corner": "NW", "SourceFile": "C:\\FHMP\\temp_photo_folder\\20251013_153037.jpg", "filename_only": "20251013_153037.jpg", "img_rel": "photos/20251013_153037.jpg", "Distance_m": null, "Latitude": "-33.880874", "Longitude": "115.276133" }, "geometry": { "type": "Point", "coordinates": [ 115.276133388888894, -33.8808745 ] } },
{ "type": "Feature", "properties": { "XMP_Title": "jbw4a_SW", "SiteID": "jbw4a", "Corner": "SW", "SourceFile": "C:\\FHMP\\temp_photo_folder\\20251013_163920.jpg", "filename_only": "20251013_163920.jpg", "img_rel": "photos/20251013_163920.jpg", "Distance_m": null, "Latitude": "-33.882756", "Longitude": "115.292744" }, "geometry": { "type": "Point", "coordinates": [ 115.292744111111119, -33.882756305555553 ] } },
{ "type": "Feature", "properties": { "XMP_Title": "kar2b_NW", "SiteID": "kar2b", "Corner": "NW", "SourceFile": "C:\\FHMP\\temp_photo_folder\\20251014_111828.jpg", "filename_only": "20251014_111828.jpg", "img_rel": "photos/20251014_111828.jpg", "Distance_m": null, "Latitude": "-34.132874", "Longitude": "115.068154" }, "geometry": { "type": "Point", "coordinates": [ 115.0681542, -34.132874361111121 ] } },
{ "type": "Feature", "properties": { "XMP_Title": "kar2b_SW", "SiteID": "kar2b", "Corner": "SW", "SourceFile": "C:\\FHMP\\temp_photo_folder\\20251014_165327.jpg", "filename_only": "20251014_165327.jpg", "img_rel": "photos/20251014_165327.jpg", "Distance_m": null, "Latitude": "-34.133734", "Longitude": "115.068209" }, "geometry": { "type": "Point", "coordinates": [ 115.0682094, -34.133734061111106 ] } },
{ "type": "Feature", "properties": { "XMP_Title": "kar2b_SE", "SiteID": "kar2b", "Corner": "SE", "SourceFile": "C:\\FHMP\\temp_photo_folder\\20251015_102534.jpg", "filename_only": "20251015_102534.jpg", "img_rel": "photos/20251015_102534.jpg", "Distance_m": null, "Latitude": "-34.133719", "Longitude": "115.069205" }, "geometry": { "type": "Point", "coordinates": [ 115.0692052, -34.133718799999983 ] } },
{ "type": "Feature", "properties": { "XMP_Title": "kar2b_NE", "SiteID": "kar2b", "Corner": "NE", "SourceFile": "C:\\FHMP\\temp_photo_folder\\20251015_145456.jpg", "filename_only": "20251015_145456.jpg", "img_rel": "photos/20251015_145456.jpg", "Distance_m": null, "Latitude": "-34.132824", "Longitude": "115.069471" }, "geometry": { "type": "Point", "coordinates": [ 115.069471388888871, -34.132823805555553 ] } },
{ "type": "Feature", "properties": { "XMP_Title": "jbw4a_NW", "SiteID": "jbw4a", "Corner": "NW", "SourceFile": "C:\\FHMP\\temp_photo_folder\\20251016_100337.jpg", "filename_only": "20251016_100337.jpg", "img_rel": "photos/20251016_100337.jpg", "Distance_m": null, "Latitude": "-33.881750", "Longitude": "115.292731" }, "geometry": { "type": "Point", "coordinates": [ 115.292731194444443, -33.881750305555549 ] } },
{ "type": "Feature", "properties": { "XMP_Title": "jbw4a_SE", "SiteID": "jbw4a", "Corner": "SE", "SourceFile": "C:\\FHMP\\temp_photo_folder\\20251016_112011.jpg", "filename_only": "20251016_112011.jpg", "img_rel": "photos/20251016_112011.jpg", "Distance_m": null, "Latitude": "-33.882719", "Longitude": "115.293846" }, "geometry": { "type": "Point", "coordinates": [ 115.293845805555534, -33.882719 ] } },
{ "type": "Feature", "properties": { "XMP_Title": "jbw4a_NE", "SiteID": "jbw4a", "Corner": "NE", "SourceFile": "C:\\FHMP\\temp_photo_folder\\20251016_151358.jpg", "filename_only": "20251016_151358.jpg", "img_rel": "photos/20251016_151358.jpg", "Distance_m": null, "Latitude": "-33.881847", "Longitude": "115.293938" }, "geometry": { "type": "Point", "coordinates": [ 115.293937611111119, -33.881847111111114 ] } },
{ "type": "Feature", "properties": { "XMP_Title": "jbw4a_NE", "SiteID": "jbw4a", "Corner": "NE", "SourceFile": "C:\\FHMP\\temp_photo_folder\\20251016_151512.jpg", "filename_only": "20251016_151512.jpg", "img_rel": "photos/20251016_151512.jpg", "Distance_m": null, "Latitude": "-33.881878", "Longitude": "115.294194" }, "geometry": { "type": "Point", "coordinates": [ 115.294194388888883, -33.881877805555554 ] } },
{ "type": "Feature", "properties": { "XMP_Title": "jbw4a_NE", "SiteID": "jbw4a", "Corner": "NE", "SourceFile": "C:\\FHMP\\temp_photo_folder\\20251016_151519.jpg", "filename_only": "20251016_151519.jpg", "img_rel": "photos/20251016_151519.jpg", "Distance_m": null, "Latitude": "-33.881878", "Longitude": "115.294194" }, "geometry": { "type": "Point", "coordinates": [ 115.294194388888883, -33.881877805555554 ] } },
{ "type": "Feature", "properties": { "XMP_Title": "jbw4a_NE", "SiteID": "jbw4a", "Corner": "NE", "SourceFile": "C:\\FHMP\\temp_photo_folder\\20251016_151529.jpg", "filename_only": "20251016_151529.jpg", "img_rel": "photos/20251016_151529.jpg", "Distance_m": null, "Latitude": "-33.881878", "Longitude": "115.294194" }, "geometry": { "type": "Point", "coordinates": [ 115.294194388888883, -33.881877805555554 ] } },
{ "type": "Feature", "properties": { "XMP_Title": "jbw4a_NE", "SiteID": "jbw4a", "Corner": "NE", "SourceFile": "C:\\FHMP\\temp_photo_folder\\20251016_151558.jpg", "filename_only": "20251016_151558.jpg", "img_rel": "photos/20251016_151558.jpg", "Distance_m": null, "Latitude": "-33.881878", "Longitude": "115.294194" }, "geometry": { "type": "Point", "coordinates": [ 115.294194388888883, -33.881877805555554 ] } },
{ "type": "Feature", "properties": { "XMP_Title": "jbw4a_NE", "SiteID": "jbw4a", "Corner": "NE", "SourceFile": "C:\\FHMP\\temp_photo_folder\\20251016_152522.jpg", "filename_only": "20251016_152522.jpg", "img_rel": "photos/20251016_152522.jpg", "Distance_m": null, "Latitude": "-33.881913", "Longitude": "115.294022" }, "geometry": { "type": "Point", "coordinates": [ 115.294022111111104, -33.88191330555555 ] } },
{ "type": "Feature", "properties": { "XMP_Title": "jbw4c_NW", "SiteID": "jbw4c", "Corner": "NW", "SourceFile": "C:\\FHMP\\temp_photo_folder\\20251017_082103.jpg", "filename_only": "20251017_082103.jpg", "img_rel": "photos/20251017_082103.jpg", "Distance_m": null, "Latitude": "-33.881007", "Longitude": "115.286102" }, "geometry": { "type": "Point", "coordinates": [ 115.28610230000001, -33.881006888888884 ] } },
{ "type": "Feature", "properties": { "XMP_Title": "jbw4c_SW", "SiteID": "jbw4c", "Corner": "SW", "SourceFile": "C:\\FHMP\\temp_photo_folder\\20251017_093607.jpg", "filename_only": "20251017_093607.jpg", "img_rel": "photos/20251017_093607.jpg", "Distance_m": null, "Latitude": "-33.882021", "Longitude": "115.285972" }, "geometry": { "type": "Point", "coordinates": [ 115.285971700000019, -33.882021 ] } },
{ "type": "Feature", "properties": { "XMP_Title": "jbw4c_SE", "SiteID": "jbw4c", "Corner": "SE", "SourceFile": "C:\\FHMP\\temp_photo_folder\\20251017_100814.jpg", "filename_only": "20251017_100814.jpg", "img_rel": "photos/20251017_100814.jpg", "Distance_m": null, "Latitude": "-33.881973", "Longitude": "115.286931" }, "geometry": { "type": "Point", "coordinates": [ 115.286931, -33.881973388888881 ] } },
{ "type": "Feature", "properties": { "XMP_Title": "jbw4c_NE", "SiteID": "jbw4c", "Corner": "NE", "SourceFile": "C:\\FHMP\\temp_photo_folder\\20251017_111124.jpg", "filename_only": "20251017_111124.jpg", "img_rel": "photos/20251017_111124.jpg", "Distance_m": null, "Latitude": "-33.881048", "Longitude": "115.286985" }, "geometry": { "type": "Point", "coordinates": [ 115.286984805555562, -33.88104769444444 ] } },
{ "type": "Feature", "properties": { "XMP_Title": "kar2a_NW", "SiteID": "kar2a", "Corner": "NW", "SourceFile": "C:\\FHMP\\temp_photo_folder\\20251022_111001.jpg", "filename_only": "20251022_111001.jpg", "img_rel": "photos/20251022_111001.jpg", "Distance_m": null, "Latitude": "-34.140792", "Longitude": "115.071297" }, "geometry": { "type": "Point", "coordinates": [ 115.07129719444444, -34.140792194444444 ] } },
{ "type": "Feature", "properties": { "XMP_Title": "kar2a_NW", "SiteID": "kar2a", "Corner": "NW", "SourceFile": "C:\\FHMP\\temp_photo_folder\\20251022_111005.jpg", "filename_only": "20251022_111005.jpg", "img_rel": "photos/20251022_111005.jpg", "Distance_m": null, "Latitude": "-34.140792", "Longitude": "115.071297" }, "geometry": { "type": "Point", "coordinates": [ 115.07129719444444, -34.140792194444444 ] } },
{ "type": "Feature", "properties": { "XMP_Title": "kar2a_CEN", "SiteID": "kar2a", "Corner": "CEN", "SourceFile": "C:\\FHMP\\temp_photo_folder\\20251022_143646.jpg", "filename_only": "20251022_143646.jpg", "img_rel": "photos/20251022_143646.jpg", "Distance_m": null, "Latitude": "-34.141153", "Longitude": "115.072043" }, "geometry": { "type": "Point", "coordinates": [ 115.072042611111115, -34.14115288888889 ] } },
{ "type": "Feature", "properties": { "XMP_Title": "kar2a_SW", "SiteID": "kar2a", "Corner": "SW", "SourceFile": "C:\\FHMP\\temp_photo_folder\\20251022_161014.jpg", "filename_only": "20251022_161014.jpg", "img_rel": "photos/20251022_161014.jpg", "Distance_m": null, "Latitude": "-34.141878", "Longitude": "115.071626" }, "geometry": { "type": "Point", "coordinates": [ 115.071625611111088, -34.141877694444446 ] } },
{ "type": "Feature", "properties": { "XMP_Title": "kar2a_SE", "SiteID": "kar2a", "Corner": "SE", "SourceFile": "C:\\FHMP\\temp_photo_folder\\20251023_084109.jpg", "filename_only": "20251023_084109.jpg", "img_rel": "photos/20251023_084109.jpg", "Distance_m": null, "Latitude": "-34.141693", "Longitude": "115.072583" }, "geometry": { "type": "Point", "coordinates": [ 115.072583111111101, -34.14169280555555 ] } },
{ "type": "Feature", "properties": { "XMP_Title": "kar2a_NE", "SiteID": "kar2a", "Corner": "NE", "SourceFile": "C:\\FHMP\\temp_photo_folder\\20251023_120547.jpg", "filename_only": "20251023_120547.jpg", "img_rel": "photos/20251023_120547.jpg", "Distance_m": null, "Latitude": "-34.141155", "Longitude": "115.073348" }, "geometry": { "type": "Point", "coordinates": [ 115.073348194444435, -34.141154888888884 ] } },
{ "type": "Feature", "properties": { "XMP_Title": "jse2b_NW", "SiteID": "jse2b", "Corner": "NW", "SourceFile": "C:\\FHMP\\temp_photo_folder\\20251103_144725.jpg", "filename_only": "20251103_144725.jpg", "img_rel": "photos/20251103_144725.jpg", "Distance_m": null, "Latitude": "-34.606780", "Longitude": "116.815572" }, "geometry": { "type": "Point", "coordinates": [ 116.815572, -34.6067795 ] } },
{ "type": "Feature", "properties": { "XMP_Title": "jse2b_NW", "SiteID": "jse2b", "Corner": "NW", "SourceFile": "C:\\FHMP\\temp_photo_folder\\20251103_144749.jpg", "filename_only": "20251103_144749.jpg", "img_rel": "photos/20251103_144749.jpg", "Distance_m": null, "Latitude": "-34.606780", "Longitude": "116.815572" }, "geometry": { "type": "Point", "coordinates": [ 116.815572, -34.6067795 ] } },
{ "type": "Feature", "properties": { "XMP_Title": "tgl1a_SE", "SiteID": "tgl1a", "Corner": "SE", "SourceFile": "C:\\FHMP\\temp_photo_folder\\20251104_091415.jpg", "filename_only": "20251104_091415.jpg", "img_rel": "photos/20251104_091415.jpg", "Distance_m": null, "Latitude": "-34.815428", "Longitude": "116.620776" }, "geometry": { "type": "Point", "coordinates": [ 116.6207756111111, -34.815427888888877 ] } },
{ "type": "Feature", "properties": { "XMP_Title": "tgl1a_SE", "SiteID": "tgl1a", "Corner": "SE", "SourceFile": "C:\\FHMP\\temp_photo_folder\\20251104_091424.jpg", "filename_only": "20251104_091424.jpg", "img_rel": "photos/20251104_091424.jpg", "Distance_m": null, "Latitude": "-34.815428", "Longitude": "116.620776" }, "geometry": { "type": "Point", "coordinates": [ 116.6207756111111, -34.815427888888877 ] } },
{ "type": "Feature", "properties": { "XMP_Title": "tgl1a_NE", "SiteID": "tgl1a", "Corner": "NE", "SourceFile": "C:\\FHMP\\temp_photo_folder\\20251104_110055.jpg", "filename_only": "20251104_110055.jpg", "img_rel": "photos/20251104_110055.jpg", "Distance_m": null, "Latitude": "-34.814618", "Longitude": "116.620736" }, "geometry": { "type": "Point", "coordinates": [ 116.620736, -34.814617611111103 ] } },
{ "type": "Feature", "properties": { "XMP_Title": "tgl1a_NE", "SiteID": "tgl1a", "Corner": "NE", "SourceFile": "C:\\FHMP\\temp_photo_folder\\20251104_110125.jpg", "filename_only": "20251104_110125.jpg", "img_rel": "photos/20251104_110125.jpg", "Distance_m": null, "Latitude": "-34.814618", "Longitude": "116.620736" }, "geometry": { "type": "Point", "coordinates": [ 116.620736, -34.814617611111103 ] } },
{ "type": "Feature", "properties": { "XMP_Title": "tgl1a_NW", "SiteID": "tgl1a", "Corner": "NW", "SourceFile": "C:\\FHMP\\temp_photo_folder\\20251104_124518.jpg", "filename_only": "20251104_124518.jpg", "img_rel": "photos/20251104_124518.jpg", "Distance_m": null, "Latitude": "-34.814579", "Longitude": "116.619684" }, "geometry": { "type": "Point", "coordinates": [ 116.619684, -34.814578805555549 ] } },
{ "type": "Feature", "properties": { "XMP_Title": "tgl1a_NW", "SiteID": "tgl1a", "Corner": "NW", "SourceFile": "C:\\FHMP\\temp_photo_folder\\20251104_124533.jpg", "filename_only": "20251104_124533.jpg", "img_rel": "photos/20251104_124533.jpg", "Distance_m": null, "Latitude": "-34.814579", "Longitude": "116.619684" }, "geometry": { "type": "Point", "coordinates": [ 116.619684, -34.814578805555549 ] } },
{ "type": "Feature", "properties": { "XMP_Title": "tgl1a_SW", "SiteID": "tgl1a", "Corner": "SW", "SourceFile": "C:\\FHMP\\temp_photo_folder\\20251104_153850.jpg", "filename_only": "20251104_153850.jpg", "img_rel": "photos/20251104_153850.jpg", "Distance_m": null, "Latitude": "-34.815488", "Longitude": "116.619615" }, "geometry": { "type": "Point", "coordinates": [ 116.619615194444435, -34.815487611111095 ] } },
{ "type": "Feature", "properties": { "XMP_Title": "tgl1a_SW", "SiteID": "tgl1a", "Corner": "SW", "SourceFile": "C:\\FHMP\\temp_photo_folder\\20251104_153900.jpg", "filename_only": "20251104_153900.jpg", "img_rel": "photos/20251104_153900.jpg", "Distance_m": null, "Latitude": "-34.815488", "Longitude": "116.619615" }, "geometry": { "type": "Point", "coordinates": [ 116.619615194444435, -34.815487611111095 ] } },
{ "type": "Feature", "properties": { "XMP_Title": "jse2b_NW", "SiteID": "jse2b", "Corner": "NW", "SourceFile": "C:\\FHMP\\temp_photo_folder\\20251106_100818.jpg", "filename_only": "20251106_100818.jpg", "img_rel": "photos/20251106_100818.jpg", "Distance_m": null, "Latitude": "-34.606750", "Longitude": "116.815656" }, "geometry": { "type": "Point", "coordinates": [ 116.815655694444459, -34.60675 ] } },
{ "type": "Feature", "properties": { "XMP_Title": "jse2b_SE", "SiteID": "jse2b", "Corner": "SE", "SourceFile": "C:\\FHMP\\temp_photo_folder\\20251106_110233.jpg", "filename_only": "20251106_110233.jpg", "img_rel": "photos/20251106_110233.jpg", "Distance_m": null, "Latitude": "-34.607709", "Longitude": "116.816739" }, "geometry": { "type": "Point", "coordinates": [ 116.816739200000015, -34.607709111111113 ] } },
{ "type": "Feature", "properties": { "XMP_Title": "jse2b_SW", "SiteID": "jse2b", "Corner": "SW", "SourceFile": "C:\\FHMP\\temp_photo_folder\\20251106_122812.jpg", "filename_only": "20251106_122812.jpg", "img_rel": "photos/20251106_122812.jpg", "Distance_m": null, "Latitude": "-34.607685", "Longitude": "116.815669" }, "geometry": { "type": "Point", "coordinates": [ 116.8156685, -34.60768488888889 ] } },
{ "type": "Feature", "properties": { "XMP_Title": "jse2b_NE", "SiteID": "jse2b", "Corner": "NE", "SourceFile": "C:\\FHMP\\temp_photo_folder\\20251106_151737.jpg", "filename_only": "20251106_151737.jpg", "img_rel": "photos/20251106_151737.jpg", "Distance_m": null, "Latitude": "-34.606802", "Longitude": "116.816710" }, "geometry": { "type": "Point", "coordinates": [ 116.816709799722233, -34.606802194444448 ] } },
{ "type": "Feature", "properties": { "XMP_Title": "jse2c_NW", "SiteID": "jse2c", "Corner": "NW", "SourceFile": "C:\\FHMP\\temp_photo_folder\\20251107_085504.jpg", "filename_only": "20251107_085504.jpg", "img_rel": "photos/20251107_085504.jpg", "Distance_m": null, "Latitude": "-34.606970", "Longitude": "116.824300" }, "geometry": { "type": "Point", "coordinates": [ 116.824300111111114, -34.606969888888891 ] } },
{ "type": "Feature", "properties": { "XMP_Title": "jse2c_NE", "SiteID": "jse2c", "Corner": "NE", "SourceFile": "C:\\FHMP\\temp_photo_folder\\20251107_112747.jpg", "filename_only": "20251107_112747.jpg", "img_rel": "photos/20251107_112747.jpg", "Distance_m": null, "Latitude": "-34.606920", "Longitude": "116.825688" }, "geometry": { "type": "Point", "coordinates": [ 116.825687888888879, -34.606920111111123 ] } },
{ "type": "Feature", "properties": { "XMP_Title": "jse2c_SE", "SiteID": "jse2c", "Corner": "SE", "SourceFile": "C:\\FHMP\\temp_photo_folder\\20251107_145040.jpg", "filename_only": "20251107_145040.jpg", "img_rel": "photos/20251107_145040.jpg", "Distance_m": null, "Latitude": "-34.607556", "Longitude": "116.825508" }, "geometry": { "type": "Point", "coordinates": [ 116.825508388888892, -34.6075555 ] } },
{ "type": "Feature", "properties": { "XMP_Title": "jse2c_SW", "SiteID": "jse2c", "Corner": "SW", "SourceFile": "C:\\FHMP\\temp_photo_folder\\20251107_172946.jpg", "filename_only": "20251107_172946.jpg", "img_rel": "photos/20251107_172946.jpg", "Distance_m": null, "Latitude": "-34.607742", "Longitude": "116.824345" }, "geometry": { "type": "Point", "coordinates": [ 116.824344694444434, -34.607742111111115 ] } },
{ "type": "Feature", "properties": { "XMP_Title": "jse2a_SE", "SiteID": "jse2a", "Corner": "SE", "SourceFile": "C:\\FHMP\\temp_photo_folder\\20251108_095304.jpg", "filename_only": "20251108_095304.jpg", "img_rel": "photos/20251108_095304.jpg", "Distance_m": null, "Latitude": "-34.605003", "Longitude": "116.830368" }, "geometry": { "type": "Point", "coordinates": [ 116.830368305555552, -34.605002888888897 ] } },
{ "type": "Feature", "properties": { "XMP_Title": "jse2a_NW", "SiteID": "jse2a", "Corner": "NW", "SourceFile": "C:\\FHMP\\temp_photo_folder\\20251108_121342.jpg", "filename_only": "20251108_121342.jpg", "img_rel": "photos/20251108_121342.jpg", "Distance_m": null, "Latitude": "-34.604105", "Longitude": "116.829226" }, "geometry": { "type": "Point", "coordinates": [ 116.829225694444446, -34.604105194444443 ] } },
{ "type": "Feature", "properties": { "XMP_Title": "jse2a_NW", "SiteID": "jse2a", "Corner": "NW", "SourceFile": "C:\\FHMP\\temp_photo_folder\\20251108_121358.jpg", "filename_only": "20251108_121358.jpg", "img_rel": "photos/20251108_121358.jpg", "Distance_m": null, "Latitude": "-34.604354", "Longitude": "116.828311" }, "geometry": { "type": "Point", "coordinates": [ 116.82831069444444, -34.60435380555554 ] } },
{ "type": "Feature", "properties": { "XMP_Title": "jse2a_NE", "SiteID": "jse2a", "Corner": "NE", "SourceFile": "C:\\FHMP\\temp_photo_folder\\20251108_164504.jpg", "filename_only": "20251108_164504.jpg", "img_rel": "photos/20251108_164504.jpg", "Distance_m": null, "Latitude": "-34.604063", "Longitude": "116.830309" }, "geometry": { "type": "Point", "coordinates": [ 116.830309, -34.604062611111111 ] } },
{ "type": "Feature", "properties": { "XMP_Title": "tgl1b_SE", "SiteID": "tgl1b", "Corner": "SE", "SourceFile": "C:\\FHMP\\temp_photo_folder\\20251109_094734.jpg", "filename_only": "20251109_094734.jpg", "img_rel": "photos/20251109_094734.jpg", "Distance_m": null, "Latitude": "-34.816324", "Longitude": "116.647009" }, "geometry": { "type": "Point", "coordinates": [ 116.647009194444465, -34.816324194444441 ] } },
{ "type": "Feature", "properties": { "XMP_Title": "tgl1b_SW", "SiteID": "tgl1b", "Corner": "SW", "SourceFile": "C:\\FHMP\\temp_photo_folder\\20251109_131429.jpg", "filename_only": "20251109_131429.jpg", "img_rel": "photos/20251109_131429.jpg", "Distance_m": null, "Latitude": "-34.816280", "Longitude": "116.645824" }, "geometry": { "type": "Point", "coordinates": [ 116.645823611111112, -34.816279805555553 ] } },
{ "type": "Feature", "properties": { "XMP_Title": "tgl1b_NE", "SiteID": "tgl1b", "Corner": "NE", "SourceFile": "C:\\FHMP\\temp_photo_folder\\20251109_172711.jpg", "filename_only": "20251109_172711.jpg", "img_rel": "photos/20251109_172711.jpg", "Distance_m": null, "Latitude": "-34.815502", "Longitude": "116.646947" }, "geometry": { "type": "Point", "coordinates": [ 116.646946888888891, -34.815502305555569 ] } },
{ "type": "Feature", "properties": { "XMP_Title": "tgl1b_NW", "SiteID": "tgl1b", "Corner": "NW", "SourceFile": "C:\\FHMP\\temp_photo_folder\\20251110_104954.jpg", "filename_only": "20251110_104954.jpg", "img_rel": "photos/20251110_104954.jpg", "Distance_m": null, "Latitude": "-34.815224", "Longitude": "116.645864" }, "geometry": { "type": "Point", "coordinates": [ 116.645864305555563, -34.8152245 ] } },
{ "type": "Feature", "properties": { "XMP_Title": "jse2a_SW", "SiteID": "jse2a", "Corner": "SW", "SourceFile": "C:\\FHMP\\temp_photo_folder\\20251110_160018.jpg", "filename_only": "20251110_160018.jpg", "img_rel": "photos/20251110_160018.jpg", "Distance_m": null, "Latitude": "-34.605064", "Longitude": "116.829242" }, "geometry": { "type": "Point", "coordinates": [ 116.829242305555553, -34.605063805555552 ] } },
{ "type": "Feature", "properties": { "XMP_Title": "jse1c_NE", "SiteID": "jse1c", "Corner": "NE", "SourceFile": "C:\\FHMP\\temp_photo_folder\\20251111_085816.jpg", "filename_only": "20251111_085816.jpg", "img_rel": "photos/20251111_085816.jpg", "Distance_m": null, "Latitude": "-34.796696", "Longitude": "117.346103" }, "geometry": { "type": "Point", "coordinates": [ 117.346103194444439, -34.79669638888889 ] } },
{ "type": "Feature", "properties": { "XMP_Title": "jse1c_SW", "SiteID": "jse1c", "Corner": "SW", "SourceFile": "C:\\FHMP\\temp_photo_folder\\20251111_110244.jpg", "filename_only": "20251111_110244.jpg", "img_rel": "photos/20251111_110244.jpg", "Distance_m": null, "Latitude": "-34.797572", "Longitude": "117.344843" }, "geometry": { "type": "Point", "coordinates": [ 117.34484280555553, -34.797571888888889 ] } },
{ "type": "Feature", "properties": { "XMP_Title": "jse1c_SE", "SiteID": "jse1c", "Corner": "SE", "SourceFile": "C:\\FHMP\\temp_photo_folder\\20251111_132136.jpg", "filename_only": "20251111_132136.jpg", "img_rel": "photos/20251111_132136.jpg", "Distance_m": null, "Latitude": "-34.797458", "Longitude": "117.346103" }, "geometry": { "type": "Point", "coordinates": [ 117.346103194444439, -34.797457805555553 ] } },
{ "type": "Feature", "properties": { "XMP_Title": "jse1c_NW", "SiteID": "jse1c", "Corner": "NW", "SourceFile": "C:\\FHMP\\temp_photo_folder\\20251111_162029.jpg", "filename_only": "20251111_162029.jpg", "img_rel": "photos/20251111_162029.jpg", "Distance_m": null, "Latitude": "-34.796634", "Longitude": "117.344710" }, "geometry": { "type": "Point", "coordinates": [ 117.344710111111098, -34.796633694444452 ] } },
{ "type": "Feature", "properties": { "XMP_Title": "jse1a_SW", "SiteID": "jse1a", "Corner": "SW", "SourceFile": "C:\\FHMP\\temp_photo_folder\\20251112_092929.jpg", "filename_only": "20251112_092929.jpg", "img_rel": "photos/20251112_092929.jpg", "Distance_m": null, "Latitude": "-34.792387", "Longitude": "117.343736" }, "geometry": { "type": "Point", "coordinates": [ 117.343736499999977, -34.792387194444444 ] } },
{ "type": "Feature", "properties": { "XMP_Title": "jse1a_NE", "SiteID": "jse1a", "Corner": "NE", "SourceFile": "C:\\FHMP\\temp_photo_folder\\20251112_105346.jpg", "filename_only": "20251112_105346.jpg", "img_rel": "photos/20251112_105346.jpg", "Distance_m": null, "Latitude": "-34.791524", "Longitude": "117.344832" }, "geometry": { "type": "Point", "coordinates": [ 117.344832194444436, -34.791523805555549 ] } },
{ "type": "Feature", "properties": { "XMP_Title": "jse1a_SE", "SiteID": "jse1a", "Corner": "SE", "SourceFile": "C:\\FHMP\\temp_photo_folder\\20251112_132101.jpg", "filename_only": "20251112_132101.jpg", "img_rel": "photos/20251112_132101.jpg", "Distance_m": null, "Latitude": "-34.792293", "Longitude": "117.344731" }, "geometry": { "type": "Point", "coordinates": [ 117.34473088888889, -34.792293305555546 ] } },
{ "type": "Feature", "properties": { "XMP_Title": "jse1a_NW", "SiteID": "jse1a", "Corner": "NW", "SourceFile": "C:\\FHMP\\temp_photo_folder\\20251112_143923.jpg", "filename_only": "20251112_143923.jpg", "img_rel": "photos/20251112_143923.jpg", "Distance_m": null, "Latitude": "-34.791489", "Longitude": "117.343784" }, "geometry": { "type": "Point", "coordinates": [ 117.343784111111106, -34.791489388888877 ] } },
{ "type": "Feature", "properties": { "XMP_Title": "jse1b_SE", "SiteID": "jse1b", "Corner": "SE", "SourceFile": "C:\\FHMP\\temp_photo_folder\\20251113_082944.jpg", "filename_only": "20251113_082944.jpg", "img_rel": "photos/20251113_082944.jpg", "Distance_m": null, "Latitude": "-34.779633", "Longitude": "117.343004" }, "geometry": { "type": "Point", "coordinates": [ 117.343004, -34.779632611111111 ] } },
{ "type": "Feature", "properties": { "XMP_Title": "jse1b_NE", "SiteID": "jse1b", "Corner": "NE", "SourceFile": "C:\\FHMP\\temp_photo_folder\\20251113_101251.jpg", "filename_only": "20251113_101251.jpg", "img_rel": "photos/20251113_101251.jpg", "Distance_m": null, "Latitude": "-34.778796", "Longitude": "117.342948" }, "geometry": { "type": "Point", "coordinates": [ 117.342947888888887, -34.778795805555553 ] } },
{ "type": "Feature", "properties": { "XMP_Title": "jse1b_SW", "SiteID": "jse1b", "Corner": "SW", "SourceFile": "C:\\FHMP\\temp_photo_folder\\20251113_123442.jpg", "filename_only": "20251113_123442.jpg", "img_rel": "photos/20251113_123442.jpg", "Distance_m": null, "Latitude": "-34.779628", "Longitude": "117.341901" }, "geometry": { "type": "Point", "coordinates": [ 117.341901111111113, -34.779628194444449 ] } },
{ "type": "Feature", "properties": { "XMP_Title": "jse1b_NW", "SiteID": "jse1b", "Corner": "NW", "SourceFile": "C:\\FHMP\\temp_photo_folder\\20251113_135639.jpg", "filename_only": "20251113_135639.jpg", "img_rel": "photos/20251113_135639.jpg", "Distance_m": null, "Latitude": "-34.778705", "Longitude": "117.341904" }, "geometry": { "type": "Point", "coordinates": [ 117.341904194444439, -34.778704888888889 ] } }
]
}
